{
"type": "FeatureCollection",
"name": "jalan",
"crs": { "type": "name", "properties": { "name": "urn:ogc:def:crs:OGC:1.3:CRS84" } },
"features": [
{ "type": "Feature", "properties": { "Id": 0, "as_jalan": 2.5, "Keterangan": "Jalan Setapak", "setjalan": 1.25, "Lebar_Jala": 2.6, "Nama_Jalan": null, "Tambahan_T": null, "Pengerasan": "Beton", "SET_BUF": 0.0 }, "geometry": { "type": "MultiLineString", "coordinates": [ [ [ 110.661672020117635, -7.611719106839001 ], [ 110.661667252135999, -7.611729463184981 ] ], [ [ 110.661541880892074, -7.611923183493523 ], [ 110.661512641512758, -7.61194829339428 ] ], [ [ 110.661317886744087, -7.612028193589525 ], [ 110.661244821570747, -7.612074769681443 ], [ 110.661209128324259, -7.612094457345767 ] ], [ [ 110.661127836522311, -7.612139296222057 ], [ 110.661120034779316, -7.612143599500781 ], [ 110.66108736877915, -7.61219909877293 ], [ 110.661074170157534, -7.612249830586754 ] ] ] } },
{ "type": "Feature", "properties": { "Id": 0, "as_jalan": 2.5, "Keterangan": "Jalan Setapak", "setjalan": 1.25, "Lebar_Jala": 3.0, "Nama_Jalan": null, "Tambahan_T": null, "Pengerasan": "Tanah", "SET_BUF": 0.0 }, "geometry": { "type": "MultiLineString", "coordinates": [ [ [ 110.670144749762144, -7.611197149429968 ], [ 110.670589426247233, -7.611360126159088 ], [ 110.671158950569762, -7.611580743329357 ], [ 110.67172249147977, -7.611784602049705 ], [ 110.672235669183493, -7.611976455415558 ], [ 110.673414583932541, -7.612439553854152 ] ] ] } },
{ "type": "Feature", "properties": { "Id": 0, "as_jalan": 2.5, "Keterangan": "Jalan Setapak", "setjalan": 1.25, "Lebar_Jala": 2.0, "Nama_Jalan": null, "Tambahan_T": null, "Pengerasan": "Beton", "SET_BUF": 0.0 }, "geometry": { "type": "MultiLineString", "coordinates": [ [ [ 110.667245815480243, -7.61012543081432 ], [ 110.667377956756027, -7.609873770605134 ], [ 110.667406739613867, -7.609875707332662 ], [ 110.667633062859977, -7.610023308917296 ], [ 110.667613808429465, -7.610107538759537 ], [ 110.667542689065854, -7.610260656237353 ], [ 110.66745615780097, -7.610430611284231 ] ] ] } },
{ "type": "Feature", "properties": { "Id": 0, "as_jalan": 2.5, "Keterangan": "Jalan Setapak", "setjalan": 1.25, "Lebar_Jala": 2.5, "Nama_Jalan": null, "Tambahan_T": "Tambahan", "Pengerasan": "Tanah", "SET_BUF": 0.0 }, "geometry": { "type": "MultiLineString", "coordinates": [ [ [ 110.661369829669709, -7.607225710295769 ], [ 110.661335824330564, -7.607353560009892 ], [ 110.661293949904419, -7.607528717702793 ], [ 110.661257911129582, -7.607603360872261 ], [ 110.661184457429982, -7.607672230866505 ], [ 110.661083651981002, -7.607749695396473 ], [ 110.661014439197146, -7.607916215770028 ], [ 110.660974092858751, -7.607977931664103 ], [ 110.660929439028592, -7.608026720306045 ], [ 110.660813035795172, -7.608480281111603 ] ] ] } },
{ "type": "Feature", "properties": { "Id": 0, "as_jalan": 3.0, "Keterangan": "Jalan Lain", "setjalan": 1.5, "Lebar_Jala": 2.5, "Nama_Jalan": null, "Tambahan_T": null, "Pengerasan": "Tanah", "SET_BUF": 0.0 }, "geometry": { "type": "MultiLineString", "coordinates": [ [ [ 110.67407569395273, -7.61600163545957 ], [ 110.674208147492678, -7.615553907729775 ], [ 110.674337405707348, -7.615143908910845 ] ] ] } },
{ "type": "Feature", "properties": { "Id": 0, "as_jalan": 3.0, "Keterangan": "Jalan Lain", "setjalan": 1.5, "Lebar_Jala": 4.6, "Nama_Jalan": null, "Tambahan_T": null, "Pengerasan": "Aspal", "SET_BUF": 0.0 }, "geometry": { "type": "MultiLineString", "coordinates": [ [ [ 110.672854198575749, -7.615530625600165 ], [ 110.672750411946851, -7.615489586296049 ], [ 110.671941395204769, -7.615173117982269 ], [ 110.671755200746929, -7.615101019008858 ] ], [ [ 110.669364910214611, -7.614154505485733 ], [ 110.669153535154791, -7.614065804979398 ] ] ] } },
{ "type": "Feature", "properties": { "Id": 0, "as_jalan": 3.0, "Keterangan": "Jalan Lain", "setjalan": 1.5, "Lebar_Jala": 5.0, "Nama_Jalan": null, "Tambahan_T": null, "Pengerasan": "Tanah", "SET_BUF": 0.0 }, "geometry": { "type": "MultiLineString", "coordinates": [ [ [ 110.674575194793562, -7.614347723713435 ], [ 110.669694456173502, -7.612495121486863 ] ] ] } },
{ "type": "Feature", "properties": { "Id": 0, "as_jalan": 3.0, "Keterangan": "Jalan Lain", "setjalan": 1.5, "Lebar_Jala": 3.1, "Nama_Jalan": null, "Tambahan_T": null, "Pengerasan": "Aspal", "SET_BUF": 0.0 }, "geometry": { "type": "MultiLineString", "coordinates": [ [ [ 110.669153535154791, -7.614065804979398 ], [ 110.669153374648786, -7.614066255675082 ] ] ] } },
{ "type": "Feature", "properties": { "Id": 0, "as_jalan": 3.0, "Keterangan": "Jalan Lain", "setjalan": 1.5, "Lebar_Jala": 4.6, "Nama_Jalan": null, "Tambahan_T": null, "Pengerasan": "Aspal", "SET_BUF": 0.0 }, "geometry": { "type": "MultiLineString", "coordinates": [ [ [ 110.669153535154791, -7.614065804979398 ], [ 110.66914856041997, -7.614063942340037 ] ], [ [ 110.666691019571957, -7.613144295101699 ], [ 110.666535259798735, -7.613088710140912 ], [ 110.666379001001914, -7.613039488688239 ] ], [ [ 110.665840750089984, -7.612895655943814 ], [ 110.665697689524421, -7.612867420267277 ], [ 110.665195623252174, -7.612772241827093 ], [ 110.664845051105175, -7.612698634290954 ] ], [ [ 110.664359797553743, -7.612588467069227 ], [ 110.664151039870589, -7.61253429572643 ], [ 110.663835984362606, -7.612430659066561 ] ] ] } },
{ "type": "Feature", "properties": { "Id": 0, "as_jalan": 3.0, "Keterangan": "Jalan Lain", "setjalan": 1.5, "Lebar_Jala": 3.8, "Nama_Jalan": null, "Tambahan_T": null, "Pengerasan": "Aspal", "SET_BUF": 0.0 }, "geometry": { "type": "MultiLineString", "coordinates": [ [ [ 110.669694456173502, -7.612495121486863 ], [ 110.669647123859733, -7.61263066389716 ], [ 110.669471043745347, -7.613170801545553 ], [ 110.669366347460965, -7.613468234171371 ], [ 110.669153535154791, -7.614065804979398 ] ] ] } },
{ "type": "Feature", "properties": { "Id": 0, "as_jalan": 3.0, "Keterangan": "Jalan Lain", "setjalan": 1.5, "Lebar_Jala": 4.5, "Nama_Jalan": null, "Tambahan_T": null, "Pengerasan": "Tanah", "SET_BUF": 0.0 }, "geometry": { "type": "MultiLineString", "coordinates": [ [ [ 110.669694456173502, -7.612495121486863 ], [ 110.665161500785658, -7.610882346998416 ], [ 110.662190801207856, -7.610007907917259 ] ] ] } },
{ "type": "Feature", "properties": { "Id": 0, "as_jalan": 3.0, "Keterangan": "Jalan Lain", "setjalan": 1.5, "Lebar_Jala": 3.0, "Nama_Jalan": null, "Tambahan_T": null, "Pengerasan": "Beton", "SET_BUF": 0.0 }, "geometry": { "type": "MultiLineString", "coordinates": [ [ [ 110.661077920454076, -7.612250749616222 ], [ 110.660811058877442, -7.612185353723163 ] ] ] } },
{ "type": "Feature", "properties": { "Id": 0, "as_jalan": 3.0, "Keterangan": "Jalan Lain", "setjalan": 1.5, "Lebar_Jala": 4.6, "Nama_Jalan": null, "Tambahan_T": null, "Pengerasan": "Aspal", "SET_BUF": 0.0 }, "geometry": { "type": "MultiLineString", "coordinates": [ [ [ 110.661751471050735, -7.611748768522718 ], [ 110.66163119066502, -7.611703863835178 ], [ 110.661371829415273, -7.611527783720802 ], [ 110.66094590589509, -7.611166105647867 ], [ 110.660577089439158, -7.610868673022029 ], [ 110.660484295410768, -7.610805182416605 ] ] ] } },
{ "type": "Feature", "properties": { "Id": 0, "as_jalan": 3.0, "Keterangan": "Jalan Lain", "setjalan": 1.5, "Lebar_Jala": 2.8, "Nama_Jalan": null, "Tambahan_T": null, "Pengerasan": "Aspal", "SET_BUF": 0.0 }, "geometry": { "type": "MultiLineString", "coordinates": [ [ [ 110.670013353933228, -7.611585478630276 ], [ 110.669856516428268, -7.612031039723623 ], [ 110.669694456173502, -7.612495121486863 ] ] ] } },
{ "type": "Feature", "properties": { "Id": 0, "as_jalan": 3.0, "Keterangan": "Jalan Lain", "setjalan": 1.5, "Lebar_Jala": 3.2, "Nama_Jalan": null, "Tambahan_T": null, "Pengerasan": "Aspal", "SET_BUF": 0.0 }, "geometry": { "type": "MultiLineString", "coordinates": [ [ [ 110.670013353933228, -7.611585478630276 ], [ 110.669450384072988, -7.611444182357568 ], [ 110.66935954442576, -7.611419168555311 ] ] ] } },
{ "type": "Feature", "properties": { "Id": 0, "as_jalan": 3.0, "Keterangan": "Jalan Lain", "setjalan": 1.5, "Lebar_Jala": 3.0, "Nama_Jalan": null, "Tambahan_T": null, "Pengerasan": "Aspal", "SET_BUF": 0.0 }, "geometry": { "type": "MultiLineString", "coordinates": [ [ [ 110.66935954442576, -7.611419168555311 ], [ 110.669416113616251, -7.611146407735835 ], [ 110.669423556163537, -7.61111057422324 ] ] ] } },
{ "type": "Feature", "properties": { "Id": 0, "as_jalan": 3.0, "Keterangan": "Jalan Lain", "setjalan": 1.5, "Lebar_Jala": 3.2, "Nama_Jalan": null, "Tambahan_T": null, "Pengerasan": "Aspal", "SET_BUF": 0.0 }, "geometry": { "type": "MultiLineString", "coordinates": [ [ [ 110.66935954442576, -7.611419168555311 ], [ 110.669245155561057, -7.611387670158648 ], [ 110.66907859329045, -7.611357926896084 ], [ 110.668873364778605, -7.611263898528492 ], [ 110.668596395517369, -7.611137311203017 ], [ 110.668446013581644, -7.610961231088401 ], [ 110.668266126329542, -7.610732802831652 ], [ 110.668226132067559, -7.610705239221326 ] ] ] } },
{ "type": "Feature", "properties": { "Id": 0, "as_jalan": 3.0, "Keterangan": "Jalan Lain", "setjalan": 1.5, "Lebar_Jala": 3.8, "Nama_Jalan": null, "Tambahan_T": null, "Pengerasan": "Aspal", "SET_BUF": 0.0 }, "geometry": { "type": "MultiLineString", "coordinates": [ [ [ 110.670128765968911, -7.611245608228582 ], [ 110.67006590899679, -7.61143617447207 ], [ 110.670013353933228, -7.611585478630276 ] ] ] } },
{ "type": "Feature", "properties": { "Id": 0, "as_jalan": 3.0, "Keterangan": "Jalan Lain", "setjalan": 1.5, "Lebar_Jala": 3.4, "Nama_Jalan": null, "Tambahan_T": null, "Pengerasan": "Aspal", "SET_BUF": 0.0 }, "geometry": { "type": "MultiLineString", "coordinates": [ [ [ 110.670128765968911, -7.611245608228582 ], [ 110.670038524654956, -7.611215091293492 ], [ 110.669921014772186, -7.611180298807154 ], [ 110.669876644271568, -7.611173085085372 ], [ 110.669774709498029, -7.611159844235737 ], [ 110.669423556163537, -7.61111057422324 ] ] ] } },
{ "type": "Feature", "properties": { "Id": 0, "as_jalan": 3.0, "Keterangan": "Jalan Lain", "setjalan": 1.5, "Lebar_Jala": 2.8, "Nama_Jalan": null, "Tambahan_T": null, "Pengerasan": "Aspal", "SET_BUF": 0.0 }, "geometry": { "type": "MultiLineString", "coordinates": [ [ [ 110.669423556163537, -7.61111057422324 ], [ 110.669462459541023, -7.610923266647754 ], [ 110.669463681343103, -7.610893949496494 ], [ 110.669440904226789, -7.610880170582553 ], [ 110.669088703411958, -7.610816838125832 ], [ 110.66878147181103, -7.610762036002519 ], [ 110.668593681190643, -7.610725992814584 ] ] ] } },
{ "type": "Feature", "properties": { "Id": 0, "as_jalan": 3.0, "Keterangan": "Jalan Lain", "setjalan": 1.5, "Lebar_Jala": 3.8, "Nama_Jalan": null, "Tambahan_T": null, "Pengerasan": "Aspal", "SET_BUF": 0.0 }, "geometry": { "type": "MultiLineString", "coordinates": [ [ [ 110.670230977807876, -7.610940183891845 ], [ 110.670215815040095, -7.610981697419861 ], [ 110.670128765968911, -7.611245608228582 ] ] ] } },
{ "type": "Feature", "properties": { "Id": 0, "as_jalan": 3.0, "Keterangan": "Jalan Lain", "setjalan": 1.5, "Lebar_Jala": 3.6, "Nama_Jalan": null, "Tambahan_T": null, "Pengerasan": "Beton", "SET_BUF": 0.0 }, "geometry": { "type": "MultiLineString", "coordinates": [ [ [ 110.670230977807876, -7.610940183891845 ], [ 110.669973738485396, -7.610850635150769 ], [ 110.66989412505896, -7.610819940137255 ], [ 110.669749365884925, -7.610659956593695 ], [ 110.669702366761413, -7.61063981696415 ], [ 110.669666885061403, -7.61061489947862 ], [ 110.669639098252247, -7.610565097398597 ], [ 110.669515610512477, -7.610192603798943 ], [ 110.669495482716471, -7.610164826027326 ], [ 110.669472464025944, -7.610153320579299 ], [ 110.669442719456583, -7.610154255230185 ], [ 110.669207585581162, -7.610234491228713 ], [ 110.669175923516292, -7.610233509747905 ], [ 110.668982313628334, -7.609966268274425 ], [ 110.66889887574537, -7.609918338314738 ], [ 110.668747317154697, -7.609867484331484 ], [ 110.668725266060378, -7.609845449007946 ] ] ] } },
{ "type": "Feature", "properties": { "Id": 0, "as_jalan": 3.0, "Keterangan": "Jalan Lain", "setjalan": 1.5, "Lebar_Jala": 4.6, "Nama_Jalan": null, "Tambahan_T": null, "Pengerasan": "Aspal", "SET_BUF": 0.0 }, "geometry": { "type": "MultiLineString", "coordinates": [ [ [ 110.660484295410768, -7.610805182416605 ], [ 110.660260621125389, -7.610652142070519 ], [ 110.660096438315989, -7.610547445786239 ] ] ] } },
{ "type": "Feature", "properties": { "Id": 0, "as_jalan": 3.0, "Keterangan": "Jalan Lain", "setjalan": 1.5, "Lebar_Jala": 2.8, "Nama_Jalan": null, "Tambahan_T": null, "Pengerasan": "Aspal", "SET_BUF": 0.0 }, "geometry": { "type": "MultiLineString", "coordinates": [ [ [ 110.668593681190643, -7.610725992814584 ], [ 110.668429629453968, -7.610700737607825 ], [ 110.668298674820733, -7.610681969605253 ], [ 110.668259813687612, -7.610684811848896 ], [ 110.668226132067559, -7.610705239221326 ] ] ] } },
{ "type": "Feature", "properties": { "Id": 0, "as_jalan": 3.0, "Keterangan": "Jalan Lain", "setjalan": 1.5, "Lebar_Jala": 3.2, "Nama_Jalan": null, "Tambahan_T": null, "Pengerasan": "Aspal", "SET_BUF": 0.0 }, "geometry": { "type": "MultiLineString", "coordinates": [ [ [ 110.668226132067559, -7.610705239221326 ], [ 110.668195694283781, -7.61068426182711 ], [ 110.668087190861669, -7.610635720822576 ], [ 110.667969169595864, -7.610606215506098 ], [ 110.667931098219782, -7.610582420896091 ], [ 110.66785559474701, -7.610536341578808 ] ] ] } },
{ "type": "Feature", "properties": { "Id": 0, "as_jalan": 3.0, "Keterangan": "Jalan Lain", "setjalan": 1.5, "Lebar_Jala": 2.7, "Nama_Jalan": null, "Tambahan_T": null, "Pengerasan": "Aspal", "SET_BUF": 0.0 }, "geometry": { "type": "MultiLineString", "coordinates": [ [ [ 110.659283080228008, -7.61104635881228 ], [ 110.659414500223988, -7.611082840388694 ], [ 110.659536329222036, -7.611114527773672 ], [ 110.659658155974725, -7.611149087095993 ], [ 110.65973375833758, -7.611177408149717 ], [ 110.659800893257341, -7.611213839154342 ], [ 110.65988337609808, -7.611255068810663 ], [ 110.65997641399143, -7.61129534940595 ], [ 110.660097270045924, -7.611344267710687 ], [ 110.660154831326849, -7.611353886077834 ], [ 110.660271858540682, -7.611391313442892 ], [ 110.660312172541779, -7.611371241221963 ], [ 110.660359227009039, -7.611320539901271 ], [ 110.660416859096912, -7.611240169807476 ], [ 110.660453363022967, -7.611184673589704 ], [ 110.66046212109859, -7.611028636590073 ], [ 110.660484295410768, -7.610805182416605 ] ] ] } },
{ "type": "Feature", "properties": { "Id": 0, "as_jalan": 3.0, "Keterangan": "Jalan Lain", "setjalan": 1.5, "Lebar_Jala": 2.0, "Nama_Jalan": null, "Tambahan_T": "Tambahan", "Pengerasan": "Aspal", "SET_BUF": 0.0 }, "geometry": { "type": "MultiLineString", "coordinates": [ [ [ 110.659291565358956, -7.610583870367299 ], [ 110.659659756669583, -7.610740663973203 ], [ 110.659763391386818, -7.610786419969686 ] ] ] } },
{ "type": "Feature", "properties": { "Id": 0, "as_jalan": 3.0, "Keterangan": "Jalan Lain", "setjalan": 1.5, "Lebar_Jala": 2.8, "Nama_Jalan": null, "Tambahan_T": null, "Pengerasan": "Aspal", "SET_BUF": 0.0 }, "geometry": { "type": "MultiLineString", "coordinates": [ [ [ 110.660096438315989, -7.610547445786239 ], [ 110.65962251810501, -7.610254183170532 ], [ 110.659508861089634, -7.610178170516829 ] ] ] } },
{ "type": "Feature", "properties": { "Id": 0, "as_jalan": 3.0, "Keterangan": "Jalan Lain", "setjalan": 1.5, "Lebar_Jala": 4.6, "Nama_Jalan": null, "Tambahan_T": null, "Pengerasan": "Aspal", "SET_BUF": 0.0 }, "geometry": { "type": "MultiLineString", "coordinates": [ [ [ 110.660096438315989, -7.610547445786239 ], [ 110.660117853464925, -7.610435611118926 ], [ 110.660372455792611, -7.609700357668006 ], [ 110.660384353097811, -7.609600420305805 ], [ 110.660367070055898, -7.609561245411076 ] ] ] } },
{ "type": "Feature", "properties": { "Id": 0, "as_jalan": 3.0, "Keterangan": "Jalan Lain", "setjalan": 1.5, "Lebar_Jala": 3.2, "Nama_Jalan": null, "Tambahan_T": null, "Pengerasan": "Aspal", "SET_BUF": 0.0 }, "geometry": { "type": "MultiLineString", "coordinates": [ [ [ 110.66785559474701, -7.610536341578808 ], [ 110.66780165554097, -7.610503422790587 ], [ 110.667771198439979, -7.610483435318078 ], [ 110.667711236022498, -7.610478676396149 ], [ 110.667639852192323, -7.610475821042891 ], [ 110.667544673752019, -7.61047867639612 ], [ 110.667477097059361, -7.610463447845625 ], [ 110.667435218545705, -7.610397774721895 ], [ 110.667363834715474, -7.610264524905368 ], [ 110.667230584899144, -7.610107480478922 ], [ 110.667162056422029, -7.610079878731299 ], [ 110.667024999468012, -7.6100360966487 ], [ 110.666676646376544, -7.609892853096081 ], [ 110.666276896927187, -7.60974056759158 ], [ 110.665624924611237, -7.609471688497732 ], [ 110.66475404188246, -7.609152840722782 ], [ 110.664213904233748, -7.608941068693126 ], [ 110.664005951870678, -7.608852578325749 ] ] ] } },
{ "type": "Feature", "properties": { "Id": 0, "as_jalan": 3.0, "Keterangan": "Jalan Lain", "setjalan": 1.5, "Lebar_Jala": 2.5, "Nama_Jalan": null, "Tambahan_T": null, "Pengerasan": "Aspal", "SET_BUF": 0.0 }, "geometry": { "type": "MultiLineString", "coordinates": [ [ [ 110.659508861089634, -7.610178170516812 ], [ 110.659291565358956, -7.610583870367299 ], [ 110.659169080791486, -7.61082005350894 ] ] ] } },
{ "type": "Feature", "properties": { "Id": 0, "as_jalan": 3.0, "Keterangan": "Jalan Lain", "setjalan": 1.5, "Lebar_Jala": 2.8, "Nama_Jalan": null, "Tambahan_T": null, "Pengerasan": "Aspal", "SET_BUF": 0.0 }, "geometry": { "type": "MultiLineString", "coordinates": [ [ [ 110.659508861089634, -7.610178170516829 ], [ 110.659342336571385, -7.610066800616237 ], [ 110.659190645932284, -7.609980545154817 ], [ 110.658925930895393, -7.609885366714563 ], [ 110.658513647874344, -7.609752971331772 ] ] ] } },
{ "type": "Feature", "properties": { "Id": 0, "as_jalan": 3.0, "Keterangan": "Jalan Lain", "setjalan": 1.5, "Lebar_Jala": 3.4, "Nama_Jalan": null, "Tambahan_T": null, "Pengerasan": "Aspal", "SET_BUF": 0.0 }, "geometry": { "type": "MultiLineString", "coordinates": [ [ [ 110.659508861089634, -7.610178170516829 ], [ 110.659621209401266, -7.609748904625836 ] ] ] } },
{ "type": "Feature", "properties": { "Id": 0, "as_jalan": 3.0, "Keterangan": "Jalan Lain", "setjalan": 1.5, "Lebar_Jala": 4.6, "Nama_Jalan": null, "Tambahan_T": null, "Pengerasan": "Tanah", "SET_BUF": 0.0 }, "geometry": { "type": "MultiLineString", "coordinates": [ [ [ 110.658190654003462, -7.611404163881545 ], [ 110.658249648710509, -7.611481741158483 ] ] ] } },
{ "type": "Feature", "properties": { "Id": 0, "as_jalan": 3.0, "Keterangan": "Jalan Lain", "setjalan": 1.5, "Lebar_Jala": 2.5, "Nama_Jalan": null, "Tambahan_T": "Tambahan", "Pengerasan": "Aspal", "SET_BUF": 0.0 }, "geometry": { "type": "MultiLineString", "coordinates": [ [ [ 110.658439716151292, -7.610130150591054 ], [ 110.658460271390965, -7.610175185397487 ], [ 110.658510608746255, -7.610219740615999 ], [ 110.658565989049407, -7.610257119868972 ], [ 110.658881920501486, -7.61041033227075 ], [ 110.659040175314644, -7.610485247695064 ] ] ] } },
{ "type": "Feature", "properties": { "Id": 0, "as_jalan": 3.0, "Keterangan": "Jalan Lain", "setjalan": 1.5, "Lebar_Jala": 3.0, "Nama_Jalan": null, "Tambahan_T": null, "Pengerasan": "Aspal", "SET_BUF": 0.0 }, "geometry": { "type": "MultiLineString", "coordinates": [ [ [ 110.658483794198872, -7.60990516653989 ], [ 110.658449817582508, -7.610078380662506 ], [ 110.658439716151278, -7.610130150591054 ] ] ] } },
{ "type": "Feature", "properties": { "Id": 0, "as_jalan": 3.0, "Keterangan": "Jalan Lain", "setjalan": 1.5, "Lebar_Jala": 2.0, "Nama_Jalan": null, "Tambahan_T": null, "Pengerasan": "Aspal", "SET_BUF": 0.0 }, "geometry": { "type": "MultiLineString", "coordinates": [ [ [ 110.658483794198872, -7.60990516653989 ], [ 110.658398178247467, -7.609880018667284 ] ] ] } },
{ "type": "Feature", "properties": { "Id": 0, "as_jalan": 3.0, "Keterangan": "Jalan Lain", "setjalan": 1.5, "Lebar_Jala": 2.0, "Nama_Jalan": null, "Tambahan_T": null, "Pengerasan": "Beton", "SET_BUF": 0.0 }, "geometry": { "type": "MultiLineString", "coordinates": [ [ [ 110.668725266060378, -7.609845449007946 ], [ 110.668710899219064, -7.609890576908883 ], [ 110.668650108202613, -7.610338558610882 ], [ 110.668593681190643, -7.610725992814584 ] ] ] } },
{ "type": "Feature", "properties": { "Id": 0, "as_jalan": 3.0, "Keterangan": "Jalan Lain", "setjalan": 1.5, "Lebar_Jala": 2.6, "Nama_Jalan": null, "Tambahan_T": null, "Pengerasan": "Beton", "SET_BUF": 0.0 }, "geometry": { "type": "MultiLineString", "coordinates": [ [ [ 110.668417455305246, -7.609608754443187 ], [ 110.668301261459519, -7.609735032492926 ], [ 110.668164898642203, -7.609887142850939 ], [ 110.668137046553397, -7.609922542563598 ], [ 110.668095724228564, -7.610006755542144 ], [ 110.668052507223877, -7.610059375338562 ], [ 110.66785559474701, -7.610536341578808 ] ] ] } },
{ "type": "Feature", "properties": { "Id": 0, "as_jalan": 3.0, "Keterangan": "Jalan Lain", "setjalan": 1.5, "Lebar_Jala": 3.0, "Nama_Jalan": null, "Tambahan_T": null, "Pengerasan": "Aspal", "SET_BUF": 0.0 }, "geometry": { "type": "MultiLineString", "coordinates": [ [ [ 110.658513647874344, -7.609752971331772 ], [ 110.658483794198872, -7.60990516653989 ] ] ] } },
{ "type": "Feature", "properties": { "Id": 0, "as_jalan": 3.0, "Keterangan": "Jalan Lain", "setjalan": 1.5, "Lebar_Jala": 3.5, "Nama_Jalan": null, "Tambahan_T": null, "Pengerasan": "Aspal", "SET_BUF": 0.0 }, "geometry": { "type": "MultiLineString", "coordinates": [ [ [ 110.659621209401266, -7.609748904625836 ], [ 110.65893592463155, -7.609577583433383 ], [ 110.658565835971174, -7.609486914367356 ] ] ] } },
{ "type": "Feature", "properties": { "Id": 0, "as_jalan": 3.0, "Keterangan": "Jalan Lain", "setjalan": 1.5, "Lebar_Jala": 3.4, "Nama_Jalan": null, "Tambahan_T": null, "Pengerasan": "Aspal", "SET_BUF": 0.0 }, "geometry": { "type": "MultiLineString", "coordinates": [ [ [ 110.659621209401266, -7.609748904625836 ], [ 110.65970875803859, -7.60935460138079 ] ] ] } },
{ "type": "Feature", "properties": { "Id": 0, "as_jalan": 3.0, "Keterangan": "Jalan Lain", "setjalan": 1.5, "Lebar_Jala": 4.6, "Nama_Jalan": null, "Tambahan_T": null, "Pengerasan": "Aspal", "SET_BUF": 0.0 }, "geometry": { "type": "MultiLineString", "coordinates": [ [ [ 110.660367070055898, -7.609561245411076 ], [ 110.660348661182553, -7.609519518631553 ], [ 110.660279656813387, -7.609476688333412 ], [ 110.660001259875756, -7.609414822347284 ], [ 110.65970875803859, -7.60935460138079 ] ] ] } },
{ "type": "Feature", "properties": { "Id": 0, "as_jalan": 3.0, "Keterangan": "Jalan Lain", "setjalan": 1.5, "Lebar_Jala": 3.7, "Nama_Jalan": null, "Tambahan_T": null, "Pengerasan": "Aspal", "SET_BUF": 0.0 }, "geometry": { "type": "MultiLineString", "coordinates": [ [ [ 110.660481100984654, -7.609504639075199 ], [ 110.660441839878089, -7.60952248503281 ], [ 110.660367070055898, -7.609561245411076 ] ] ] } },
{ "type": "Feature", "properties": { "Id": 0, "as_jalan": 3.0, "Keterangan": "Jalan Lain", "setjalan": 1.5, "Lebar_Jala": 3.7, "Nama_Jalan": null, "Tambahan_T": null, "Pengerasan": "Aspal", "SET_BUF": 0.0 }, "geometry": { "type": "MultiLineString", "coordinates": [ [ [ 110.660481100984654, -7.609504639075199 ], [ 110.660788051454489, -7.608494557877697 ] ] ] } },
{ "type": "Feature", "properties": { "Id": 0, "as_jalan": 3.0, "Keterangan": "Jalan Lain", "setjalan": 1.5, "Lebar_Jala": 3.0, "Nama_Jalan": null, "Tambahan_T": null, "Pengerasan": "Aspal", "SET_BUF": 0.0 }, "geometry": { "type": "MultiLineString", "coordinates": [ [ [ 110.658565835971174, -7.609486914367356 ], [ 110.658513647874344, -7.609752971331772 ] ] ] } },
{ "type": "Feature", "properties": { "Id": 0, "as_jalan": 3.0, "Keterangan": "Jalan Lain", "setjalan": 1.5, "Lebar_Jala": 4.6, "Nama_Jalan": null, "Tambahan_T": null, "Pengerasan": "Aspal", "SET_BUF": 0.0 }, "geometry": { "type": "MultiLineString", "coordinates": [ [ [ 110.65970875803859, -7.60935460138079 ], [ 110.659273144807784, -7.609264916303871 ], [ 110.658885292663754, -7.609172117324638 ], [ 110.658732839493126, -7.609081137206711 ] ] ] } },
{ "type": "Feature", "properties": { "Id": 0, "as_jalan": 3.0, "Keterangan": "Jalan Lain", "setjalan": 1.5, "Lebar_Jala": 4.6, "Nama_Jalan": null, "Tambahan_T": null, "Pengerasan": "Aspal", "SET_BUF": 0.0 }, "geometry": { "type": "MultiLineString", "coordinates": [ [ [ 110.658732839493126, -7.609081137206711 ], [ 110.658664067334342, -7.609040095756962 ] ] ] } },
{ "type": "Feature", "properties": { "Id": 0, "as_jalan": 3.0, "Keterangan": "Jalan Lain", "setjalan": 1.5, "Lebar_Jala": 3.0, "Nama_Jalan": null, "Tambahan_T": null, "Pengerasan": "Aspal", "SET_BUF": 0.0 }, "geometry": { "type": "MultiLineString", "coordinates": [ [ [ 110.658664067334342, -7.609040095756962 ], [ 110.658601508221622, -7.609305055835071 ], [ 110.658565835971174, -7.609486914367356 ] ] ] } },
{ "type": "Feature", "properties": { "Id": 0, "as_jalan": 3.0, "Keterangan": "Jalan Lain", "setjalan": 1.5, "Lebar_Jala": 4.6, "Nama_Jalan": null, "Tambahan_T": null, "Pengerasan": "Aspal", "SET_BUF": 0.0 }, "geometry": { "type": "MultiLineString", "coordinates": [ [ [ 110.658664067334342, -7.609040095756962 ], [ 110.658590239498935, -7.608996037210097 ], [ 110.65834717232579, -7.608854901432127 ] ] ] } },
{ "type": "Feature", "properties": { "Id": 0, "as_jalan": 3.0, "Keterangan": "Jalan Lain", "setjalan": 1.5, "Lebar_Jala": 3.8, "Nama_Jalan": null, "Tambahan_T": null, "Pengerasan": "Aspal", "SET_BUF": 0.0 }, "geometry": { "type": "MultiLineString", "coordinates": [ [ [ 110.670670593287127, -7.609467267284836 ], [ 110.670677430475436, -7.609565918121239 ], [ 110.670666722900862, -7.609702737129107 ], [ 110.670563216347148, -7.61000730813794 ], [ 110.670460899523817, -7.610310689416144 ], [ 110.670230977807876, -7.610940183891845 ] ] ] } },
{ "type": "Feature", "properties": { "Id": 0, "as_jalan": 3.0, "Keterangan": "Jalan Lain", "setjalan": 1.5, "Lebar_Jala": 4.6, "Nama_Jalan": null, "Tambahan_T": null, "Pengerasan": "Aspal", "SET_BUF": 0.0 }, "geometry": { "type": "MultiLineString", "coordinates": [ [ [ 110.65834717232579, -7.608854901432127 ], [ 110.658295186334314, -7.608824716017788 ], [ 110.658077710856574, -7.608732453699971 ] ] ] } },
{ "type": "Feature", "properties": { "Id": 0, "as_jalan": 3.0, "Keterangan": "Jalan Lain", "setjalan": 1.5, "Lebar_Jala": 2.8, "Nama_Jalan": null, "Tambahan_T": null, "Pengerasan": "Aspal", "SET_BUF": 0.0 }, "geometry": { "type": "MultiLineString", "coordinates": [ [ [ 110.65834717232579, -7.608854901432127 ], [ 110.658490496892767, -7.608575458089056 ] ] ] } },
{ "type": "Feature", "properties": { "Id": 0, "as_jalan": 3.0, "Keterangan": "Jalan Lain", "setjalan": 1.5, "Lebar_Jala": 3.2, "Nama_Jalan": null, "Tambahan_T": null, "Pengerasan": "Aspal", "SET_BUF": 0.0 }, "geometry": { "type": "MultiLineString", "coordinates": [ [ [ 110.664005951870678, -7.608852578325749 ], [ 110.663990234899103, -7.60884589025278 ], [ 110.663571449761704, -7.608686466365195 ], [ 110.663176459234464, -7.608508006789747 ], [ 110.663000379119893, -7.608462797030582 ], [ 110.662805263317267, -7.608424725654493 ], [ 110.662576835060491, -7.608381895356297 ], [ 110.662188982916334, -7.608335495866583 ], [ 110.661817786999308, -7.608291475838068 ], [ 110.661634568501682, -7.608265301766988 ], [ 110.661331087378798, -7.608216140102886 ] ] ] } },
{ "type": "Feature", "properties": { "Id": 0, "as_jalan": 3.0, "Keterangan": "Jalan Lain", "setjalan": 1.5, "Lebar_Jala": 2.8, "Nama_Jalan": null, "Tambahan_T": null, "Pengerasan": "Aspal", "SET_BUF": 0.0 }, "geometry": { "type": "MultiLineString", "coordinates": [ [ [ 110.659019561406538, -7.608786762790306 ], [ 110.658778272431093, -7.609033222243674 ], [ 110.658732839493126, -7.609081137206711 ] ] ] } },
{ "type": "Feature", "properties": { "Id": 0, "as_jalan": 3.0, "Keterangan": "Jalan Lain", "setjalan": 1.5, "Lebar_Jala": 2.8, "Nama_Jalan": null, "Tambahan_T": null, "Pengerasan": "Aspal", "SET_BUF": 0.0 }, "geometry": { "type": "MultiLineString", "coordinates": [ [ [ 110.659019561406538, -7.608786762790306 ], [ 110.658490496892767, -7.608575458089056 ] ] ] } },
{ "type": "Feature", "properties": { "Id": 0, "as_jalan": 3.0, "Keterangan": "Jalan Lain", "setjalan": 1.5, "Lebar_Jala": 4.6, "Nama_Jalan": null, "Tambahan_T": null, "Pengerasan": "Aspal", "SET_BUF": 0.0 }, "geometry": { "type": "MultiLineString", "coordinates": [ [ [ 110.658077710856574, -7.608732453699971 ], [ 110.658059619694697, -7.60872477865552 ], [ 110.658049054933372, -7.608724281492621 ] ] ] } },
{ "type": "Feature", "properties": { "Id": 0, "as_jalan": 3.0, "Keterangan": "Jalan Lain", "setjalan": 1.5, "Lebar_Jala": 2.8, "Nama_Jalan": null, "Tambahan_T": null, "Pengerasan": "Aspal", "SET_BUF": 0.0 }, "geometry": { "type": "MultiLineString", "coordinates": [ [ [ 110.658490496892767, -7.608575458089056 ], [ 110.658484527969819, -7.60857307414267 ], [ 110.658191387943802, -7.608429269601488 ] ] ] } },
{ "type": "Feature", "properties": { "Id": 0, "as_jalan": 3.0, "Keterangan": "Jalan Lain", "setjalan": 1.5, "Lebar_Jala": 3.6, "Nama_Jalan": null, "Tambahan_T": null, "Pengerasan": "Aspal", "SET_BUF": 0.0 }, "geometry": { "type": "MultiLineString", "coordinates": [ [ [ 110.660788051454489, -7.608494557877697 ], [ 110.660813035795172, -7.608480281111603 ], [ 110.660977218604515, -7.608530249792794 ], [ 110.661098571116014, -7.608558803324833 ], [ 110.66116995494626, -7.608544526558771 ], [ 110.661227062010397, -7.608480281111614 ], [ 110.661269892308482, -7.608358928600291 ], [ 110.661331087378798, -7.608216140102886 ] ] ] } },
{ "type": "Feature", "properties": { "Id": 0, "as_jalan": 3.0, "Keterangan": "Jalan Lain", "setjalan": 1.5, "Lebar_Jala": 3.6, "Nama_Jalan": null, "Tambahan_T": null, "Pengerasan": "Aspal", "SET_BUF": 0.0 }, "geometry": { "type": "MultiLineString", "coordinates": [ [ [ 110.660788051454489, -7.608494557877697 ], [ 110.659623683263391, -7.608146627860385 ], [ 110.659580962395893, -7.60811658221405 ] ] ] } },
{ "type": "Feature", "properties": { "Id": 0, "as_jalan": 3.0, "Keterangan": "Jalan Lain", "setjalan": 1.5, "Lebar_Jala": 2.8, "Nama_Jalan": null, "Tambahan_T": null, "Pengerasan": "Aspal", "SET_BUF": 0.0 }, "geometry": { "type": "MultiLineString", "coordinates": [ [ [ 110.658191387943802, -7.608429269601488 ], [ 110.658169249386305, -7.608418409177077 ], [ 110.658005661442061, -7.608248872580365 ], [ 110.657914944478705, -7.608190873227341 ] ] ] } },
{ "type": "Feature", "properties": { "Id": 0, "as_jalan": 3.0, "Keterangan": "Jalan Lain", "setjalan": 1.5, "Lebar_Jala": 2.0, "Nama_Jalan": null, "Tambahan_T": null, "Pengerasan": "Aspal", "SET_BUF": 0.0 }, "geometry": { "type": "MultiLineString", "coordinates": [ [ [ 110.658191387943802, -7.608429269601488 ], [ 110.658377174620654, -7.607970435984744 ] ] ] } },
{ "type": "Feature", "properties": { "Id": 0, "as_jalan": 3.0, "Keterangan": "Jalan Lain", "setjalan": 1.5, "Lebar_Jala": 3.6, "Nama_Jalan": null, "Tambahan_T": null, "Pengerasan": "Aspal", "SET_BUF": 0.0 }, "geometry": { "type": "MultiLineString", "coordinates": [ [ [ 110.661331087378798, -7.608216140102886 ], [ 110.661398383202794, -7.608059116513373 ], [ 110.66143764430953, -7.607927056427505 ], [ 110.661476905416109, -7.607759304426474 ] ] ] } },
{ "type": "Feature", "properties": { "Id": 0, "as_jalan": 3.0, "Keterangan": "Jalan Lain", "setjalan": 1.5, "Lebar_Jala": 4.0, "Nama_Jalan": null, "Tambahan_T": null, "Pengerasan": "Aspal", "SET_BUF": 0.0 }, "geometry": { "type": "MultiLineString", "coordinates": [ [ [ 110.657914944478705, -7.608190873227341 ], [ 110.657980715881976, -7.60836148293181 ], [ 110.658049521662122, -7.608558985295749 ], [ 110.658075205126636, -7.608688304140124 ], [ 110.658077710856574, -7.608732453699971 ] ] ] } },
{ "type": "Feature", "properties": { "Id": 0, "as_jalan": 3.0, "Keterangan": "Jalan Lain", "setjalan": 1.5, "Lebar_Jala": 3.0, "Nama_Jalan": null, "Tambahan_T": null, "Pengerasan": "Aspal", "SET_BUF": 0.0 }, "geometry": { "type": "MultiLineString", "coordinates": [ [ [ 110.657914944478705, -7.608190873227341 ], [ 110.657824227540218, -7.608132873856285 ], [ 110.657232336614555, -7.607856261514079 ], [ 110.657154348519114, -7.607827405918628 ] ] ] } },
{ "type": "Feature", "properties": { "Id": 0, "as_jalan": 3.0, "Keterangan": "Jalan Lain", "setjalan": 1.5, "Lebar_Jala": 2.7, "Nama_Jalan": null, "Tambahan_T": null, "Pengerasan": "Aspal", "SET_BUF": 0.0 }, "geometry": { "type": "MultiLineString", "coordinates": [ [ [ 110.658377174620654, -7.607970435984744 ], [ 110.658562772579174, -7.607950448512319 ] ] ] } },
{ "type": "Feature", "properties": { "Id": 0, "as_jalan": 3.0, "Keterangan": "Jalan Lain", "setjalan": 1.5, "Lebar_Jala": 2.7, "Nama_Jalan": null, "Tambahan_T": "Tambahan", "Pengerasan": "Aspal", "SET_BUF": 0.0 }, "geometry": { "type": "MultiLineString", "coordinates": [ [ [ 110.658377174620682, -7.607970435984744 ], [ 110.658372891590929, -7.607939027099518 ], [ 110.658180155249198, -7.607864787915972 ], [ 110.658073079503907, -7.607830523677531 ], [ 110.657870821286735, -7.607747440626762 ] ] ] } },
{ "type": "Feature", "properties": { "Id": 0, "as_jalan": 3.0, "Keterangan": "Jalan Lain", "setjalan": 1.5, "Lebar_Jala": 2.7, "Nama_Jalan": null, "Tambahan_T": "Tambahan", "Pengerasan": "Aspal", "SET_BUF": 0.0 }, "geometry": { "type": "MultiLineString", "coordinates": [ [ [ 110.658562772579174, -7.607950448512319 ], [ 110.658968232734949, -7.607897624477909 ], [ 110.659043899594963, -7.607877637005506 ], [ 110.65920094402145, -7.607900479831191 ], [ 110.659330862592455, -7.607933316393003 ], [ 110.659559387837888, -7.608099333442244 ], [ 110.659580962395893, -7.60811658221405 ] ] ] } },
{ "type": "Feature", "properties": { "Id": 0, "as_jalan": 3.0, "Keterangan": "Jalan Lain", "setjalan": 1.5, "Lebar_Jala": 2.5, "Nama_Jalan": null, "Tambahan_T": "Tambahan", "Pengerasan": "Beton", "SET_BUF": 0.0 }, "geometry": { "type": "MultiLineString", "coordinates": [ [ [ 110.665366600090806, -7.608814564785976 ], [ 110.665390859652859, -7.608842963865713 ], [ 110.665400723541751, -7.608847446586051 ] ] ] } },
{ "type": "Feature", "properties": { "Id": 0, "as_jalan": 3.0, "Keterangan": "Jalan Lain", "setjalan": 1.5, "Lebar_Jala": 3.7, "Nama_Jalan": null, "Tambahan_T": null, "Pengerasan": "Aspal", "SET_BUF": 0.0 }, "geometry": { "type": "MultiLineString", "coordinates": [ [ [ 110.657154348519114, -7.607827405918628 ], [ 110.656934903988699, -7.607746211442468 ], [ 110.656682086256609, -7.607671853286008 ], [ 110.656567136373042, -7.607648763293386 ], [ 110.656487987570017, -7.607639127377559 ], [ 110.65638607512453, -7.607599557038471 ] ] ] } },
{ "type": "Feature", "properties": { "Id": 0, "as_jalan": 3.0, "Keterangan": "Jalan Lain", "setjalan": 1.5, "Lebar_Jala": 2.7, "Nama_Jalan": null, "Tambahan_T": null, "Pengerasan": "Aspal", "SET_BUF": 0.0 }, "geometry": { "type": "MultiLineString", "coordinates": [ [ [ 110.65718772172076, -7.607377394986365 ], [ 110.657289959228621, -7.60736553733898 ], [ 110.657437485811087, -7.607349357004162 ], [ 110.657581205255937, -7.607334128453661 ], [ 110.657826091451355, -7.607365101104514 ], [ 110.657951726992422, -7.607375094840673 ], [ 110.658260105139107, -7.607377950193952 ], [ 110.658383581796045, -7.607384939442641 ] ] ] } },
{ "type": "Feature", "properties": { "Id": 0, "as_jalan": 3.0, "Keterangan": "Jalan Lain", "setjalan": 1.5, "Lebar_Jala": 3.3, "Nama_Jalan": null, "Tambahan_T": null, "Pengerasan": "Aspal", "SET_BUF": 0.0 }, "geometry": { "type": "MultiLineString", "coordinates": [ [ [ 110.661476905416109, -7.607759304426474 ], [ 110.661778734095492, -7.60782465533161 ], [ 110.662111858636578, -7.60789889451512 ], [ 110.662439272471133, -7.60796171228571 ], [ 110.662977982443223, -7.608085444258092 ], [ 110.663396767580451, -7.608186333404793 ], [ 110.663893599038929, -7.608300547533168 ], [ 110.66412773800208, -7.608363365303699 ], [ 110.664167712947048, -7.608380497422985 ], [ 110.664171520084537, -7.608420472367853 ], [ 110.664150580827609, -7.608473772294455 ], [ 110.664005951870678, -7.608852578325749 ] ] ] } },
{ "type": "Feature", "properties": { "Id": 0, "as_jalan": 3.0, "Keterangan": "Jalan Lain", "setjalan": 1.5, "Lebar_Jala": 2.5, "Nama_Jalan": null, "Tambahan_T": null, "Pengerasan": "Aspal", "SET_BUF": 0.0 }, "geometry": { "type": "MultiLineString", "coordinates": [ [ [ 110.661369829669709, -7.607225710295769 ], [ 110.6613591220963, -7.607173957018711 ], [ 110.661361727970544, -7.607103598445915 ] ] ] } },
{ "type": "Feature", "properties": { "Id": 0, "as_jalan": 3.0, "Keterangan": "Jalan Lain", "setjalan": 1.5, "Lebar_Jala": 2.7, "Nama_Jalan": null, "Tambahan_T": null, "Pengerasan": "Aspal", "SET_BUF": 0.0 }, "geometry": { "type": "MultiLineString", "coordinates": [ [ [ 110.658383581796045, -7.607384939442641 ], [ 110.658411438859034, -7.607386516253539 ], [ 110.658474256629773, -7.607439340287922 ], [ 110.658567055609112, -7.607516434824537 ], [ 110.658598464494361, -7.607549271386461 ], [ 110.658564200255825, -7.607889058418299 ], [ 110.658562772579174, -7.607950448512319 ] ] ] } },
{ "type": "Feature", "properties": { "Id": 0, "as_jalan": 3.0, "Keterangan": "Jalan Lain", "setjalan": 1.5, "Lebar_Jala": 2.7, "Nama_Jalan": null, "Tambahan_T": null, "Pengerasan": "Aspal", "SET_BUF": 0.0 }, "geometry": { "type": "MultiLineString", "coordinates": [ [ [ 110.658411438859048, -7.607386516253539 ], [ 110.658396728063735, -7.607343421539368 ], [ 110.658398560532689, -7.607262768120343 ], [ 110.658438950317205, -7.607146485028109 ], [ 110.658486517938172, -7.607053183364226 ], [ 110.658551341245357, -7.606978563100179 ], [ 110.658600334405349, -7.606902494380534 ], [ 110.658639250841205, -7.60682928969778 ] ] ] } },
{ "type": "Feature", "properties": { "Id": 0, "as_jalan": 0.0, "Keterangan": "Jalan Setapak", "setjalan": 0.0, "Lebar_Jala": 1.5, "Nama_Jalan": null, "Tambahan_T": "Tambahan", "Pengerasan": "Aspal", "SET_BUF": 0.0 }, "geometry": { "type": "MultiLineString", "coordinates": [ [ [ 110.66390662678171, -7.608304042784985 ], [ 110.663763981167065, -7.608759759634682 ] ] ] } },
{ "type": "Feature", "properties": { "Id": 0, "as_jalan": 0.0, "Keterangan": "Jalan Setapak", "setjalan": 0.0, "Lebar_Jala": 1.7, "Nama_Jalan": null, "Tambahan_T": "Tambahan", "Pengerasan": "Aspal", "SET_BUF": 0.0 }, "geometry": { "type": "MultiLineString", "coordinates": [ [ [ 110.663386117865159, -7.608183767797119 ], [ 110.663340343624569, -7.608368432748133 ], [ 110.663288806621267, -7.608558766202119 ] ] ] } },
{ "type": "Feature", "properties": { "Id": 0, "as_jalan": 0.0, "Keterangan": "Jalan Setapak", "setjalan": 0.0, "Lebar_Jala": 2.3, "Nama_Jalan": null, "Tambahan_T": "Tambahan", "Pengerasan": "Aspal", "SET_BUF": 0.0 }, "geometry": { "type": "MultiLineString", "coordinates": [ [ [ 110.663512981725304, -7.608213049356083 ], [ 110.663552888339908, -7.60803353403152 ] ] ] } },
{ "type": "Feature", "properties": { "Id": 0, "as_jalan": 0.0, "Keterangan": "Jalan Setapak", "setjalan": 0.0, "Lebar_Jala": 2.0, "Nama_Jalan": null, "Tambahan_T": "Tambahan", "Pengerasan": "Aspal", "SET_BUF": 0.0 }, "geometry": { "type": "MultiLineString", "coordinates": [ [ [ 110.662733378940771, -7.608029263332555 ], [ 110.662872598919847, -7.607447841090713 ] ] ] } },
{ "type": "Feature", "properties": { "Id": 0, "as_jalan": 0.0, "Keterangan": "Jalan Setapak", "setjalan": 0.0, "Lebar_Jala": 2.3, "Nama_Jalan": null, "Tambahan_T": "Tambahan", "Pengerasan": "Aspal", "SET_BUF": 0.0 }, "geometry": { "type": "MultiLineString", "coordinates": [ [ [ 110.662660546742856, -7.608397591311611 ], [ 110.662746330417718, -7.608032238052383 ] ] ] } },
{ "type": "Feature", "properties": { "Id": 0, "as_jalan": 0.0, "Keterangan": "Jalan Setapak", "setjalan": 0.0, "Lebar_Jala": 2.5, "Nama_Jalan": null, "Tambahan_T": "Tambahan", "Pengerasan": "Aspal", "SET_BUF": 0.0 }, "geometry": { "type": "MultiLineString", "coordinates": [ [ [ 110.662148659803933, -7.607905955217345 ], [ 110.662099310551, -7.608324861673581 ] ] ] } },
{ "type": "Feature", "properties": { "Id": 0, "as_jalan": 0.0, "Keterangan": "Jalan Setapak", "setjalan": 0.0, "Lebar_Jala": 2.5, "Nama_Jalan": null, "Tambahan_T": "Tambahan", "Pengerasan": "Beton", "SET_BUF": 0.0 }, "geometry": { "type": "MultiLineString", "coordinates": [ [ [ 110.667794520754754, -7.610115120392594 ], [ 110.667847411395684, -7.60996007425485 ] ] ] } },
{ "type": "Feature", "properties": { "Id": 0, "as_jalan": 0.0, "Keterangan": "Jalan Setapak", "setjalan": 0.0, "Lebar_Jala": 2.5, "Nama_Jalan": null, "Tambahan_T": "Tambahan", "Pengerasan": "Beton", "SET_BUF": 0.0 }, "geometry": { "type": "MultiLineString", "coordinates": [ [ [ 110.668002570310904, -7.610180333871675 ], [ 110.667794520754754, -7.610115120392611 ] ] ] } },
{ "type": "Feature", "properties": { "Id": 0, "as_jalan": 0.0, "Keterangan": "Jalan Setapak", "setjalan": 0.0, "Lebar_Jala": 2.0, "Nama_Jalan": null, "Tambahan_T": "Tambahan", "Pengerasan": "Beton", "SET_BUF": 0.0 }, "geometry": { "type": "MultiLineString", "coordinates": [ [ [ 110.668150972598383, -7.609904842707531 ], [ 110.668259808439785, -7.609942966636585 ] ] ] } },
{ "type": "Feature", "properties": { "Id": 0, "as_jalan": 3.0, "Keterangan": "Jalan Lain", "setjalan": 1.5, "Lebar_Jala": 3.6, "Nama_Jalan": null, "Tambahan_T": null, "Pengerasan": "Beton", "SET_BUF": 0.0 }, "geometry": { "type": "MultiLineString", "coordinates": [ [ [ 110.668725266060378, -7.609845449007946 ], [ 110.668710895198672, -7.609817675600259 ], [ 110.668581463450309, -7.609690252455779 ], [ 110.66841745530526, -7.609608754443187 ] ] ] } },
{ "type": "Feature", "properties": { "Id": 0, "as_jalan": 0.0, "Keterangan": "Jalan Setapak", "setjalan": 0.0, "Lebar_Jala": 2.5, "Nama_Jalan": null, "Tambahan_T": "Tambahan", "Pengerasan": "Beton", "SET_BUF": 0.0 }, "geometry": { "type": "MultiLineString", "coordinates": [ [ [ 110.668426096792857, -7.609585445228035 ], [ 110.668617605910839, -7.609687635609561 ] ] ] } },
{ "type": "Feature", "properties": { "Id": 0, "as_jalan": 0.0, "Keterangan": "Jalan Setapak", "setjalan": 0.0, "Lebar_Jala": 2.6, "Nama_Jalan": null, "Tambahan_T": "Tambahan", "Pengerasan": "Beton", "SET_BUF": 0.0 }, "geometry": { "type": "MultiLineString", "coordinates": [ [ [ 110.66841745530526, -7.609608754443187 ], [ 110.668446820303075, -7.60952954641953 ] ] ] } },
{ "type": "Feature", "properties": { "Id": 0, "as_jalan": 0.0, "Keterangan": "Jalan Setapak", "setjalan": 0.0, "Lebar_Jala": 2.6, "Nama_Jalan": null, "Tambahan_T": "Tambahan", "Pengerasan": "Beton", "SET_BUF": 0.0 }, "geometry": { "type": "MultiLineString", "coordinates": [ [ [ 110.668670926023466, -7.610185147863084 ], [ 110.668052507223905, -7.610059375338562 ] ] ] } },
{ "type": "Feature", "properties": { "Id": 0, "as_jalan": 0.0, "Keterangan": "Jalan Setapak", "setjalan": 0.0, "Lebar_Jala": 1.2, "Nama_Jalan": null, "Tambahan_T": "Tambahan", "Pengerasan": "Beton", "SET_BUF": 0.0 }, "geometry": { "type": "MultiLineString", "coordinates": [ [ [ 110.668460606547498, -7.610142373701482 ], [ 110.668330729034167, -7.610686563517218 ] ] ] } },
{ "type": "Feature", "properties": { "Id": 0, "as_jalan": 0.0, "Keterangan": "Jalan Setapak", "setjalan": 0.0, "Lebar_Jala": 2.7, "Nama_Jalan": null, "Tambahan_T": "Tambahan", "Pengerasan": "Aspal", "SET_BUF": 0.0 }, "geometry": { "type": "MultiLineString", "coordinates": [ [ [ 110.669088703411973, -7.610816838125814 ], [ 110.668975979022946, -7.611310912723994 ] ] ] } },
{ "type": "Feature", "properties": { "Id": 0, "as_jalan": 0.0, "Keterangan": "Jalan Setapak", "setjalan": 0.0, "Lebar_Jala": 1.6, "Nama_Jalan": null, "Tambahan_T": "Tambahan", "Pengerasan": "Aspal", "SET_BUF": 0.0 }, "geometry": { "type": "MultiLineString", "coordinates": [ [ [ 110.669130013554451, -7.610824266496845 ], [ 110.669195365888967, -7.610467199815371 ] ] ] } },
{ "type": "Feature", "properties": { "Id": 0, "as_jalan": 0.0, "Keterangan": "Jalan Setapak", "setjalan": 0.0, "Lebar_Jala": 2.0, "Nama_Jalan": null, "Tambahan_T": "Tambahan", "Pengerasan": "Aspal", "SET_BUF": 0.0 }, "geometry": { "type": "MultiLineString", "coordinates": [ [ [ 110.669463681343103, -7.610893949496494 ], [ 110.669493775605915, -7.610869886878679 ], [ 110.669533218372919, -7.61073397677082 ], [ 110.669561051351394, -7.610723467406947 ], [ 110.669604236738948, -7.61071201241511 ] ] ] } },
{ "type": "Feature", "properties": { "Id": 0, "as_jalan": 3.0, "Keterangan": "Jalan Lain", "setjalan": 1.5, "Lebar_Jala": 4.0, "Nama_Jalan": null, "Tambahan_T": null, "Pengerasan": "Beton", "SET_BUF": 0.0 }, "geometry": { "type": "MultiLineString", "coordinates": [ [ [ 110.662190801207856, -7.610007907917259 ], [ 110.660481100984654, -7.609504639075199 ] ] ] } },
{ "type": "Feature", "properties": { "Id": 0, "as_jalan": 3.0, "Keterangan": "Jalan Lain", "setjalan": 1.5, "Lebar_Jala": 3.6, "Nama_Jalan": null, "Tambahan_T": null, "Pengerasan": "Aspal", "SET_BUF": 0.0 }, "geometry": { "type": "MultiLineString", "coordinates": [ [ [ 110.661476905416109, -7.607759304426474 ], [ 110.661523304905856, -7.607491615063094 ], [ 110.661476905416123, -7.607398816083847 ], [ 110.661380537245407, -7.607277463572535 ], [ 110.661369829669709, -7.607225710295769 ] ] ] } },
{ "type": "Feature", "properties": { "Id": 0, "as_jalan": 3.0, "Keterangan": "Jalan Lain", "setjalan": 1.5, "Lebar_Jala": 2.7, "Nama_Jalan": null, "Tambahan_T": null, "Pengerasan": "Aspal", "SET_BUF": 0.0 }, "geometry": { "type": "MultiLineString", "coordinates": [ [ [ 110.657154348519114, -7.607827405918628 ], [ 110.657216218123096, -7.607538850412007 ], [ 110.657187721720774, -7.607377394986365 ] ] ] } },
{ "type": "Feature", "properties": { "Id": 0, "as_jalan": 3.0, "Keterangan": "Jalan Lain", "setjalan": 1.5, "Lebar_Jala": 2.8, "Nama_Jalan": null, "Tambahan_T": null, "Pengerasan": "Aspal", "SET_BUF": 0.0 }, "geometry": { "type": "MultiLineString", "coordinates": [ [ [ 110.659580962395893, -7.60811658221405 ], [ 110.65953965989776, -7.608177355373227 ], [ 110.659520715212835, -7.608221018761289 ], [ 110.659485892508684, -7.608281382766722 ], [ 110.659373137682934, -7.608405639402972 ], [ 110.659194678107426, -7.608607893588647 ], [ 110.659019561406538, -7.608786762790269 ] ] ] } },
{ "type": "Feature", "properties": { "Id": 0, "as_jalan": 0.0, "Keterangan": "Jalan Setapak", "setjalan": 0.0, "Lebar_Jala": 1.8, "Nama_Jalan": null, "Tambahan_T": "Tambahan", "Pengerasan": "Aspal", "SET_BUF": 0.0 }, "geometry": { "type": "MultiLineString", "coordinates": [ [ [ 110.657187721720774, -7.607377394986365 ], [ 110.657167456525059, -7.607278310996808 ] ] ] } },
{ "type": "Feature", "properties": { "Id": 0, "as_jalan": 0.0, "Keterangan": "Jalan Setapak", "setjalan": 0.0, "Lebar_Jala": 1.3, "Nama_Jalan": null, "Tambahan_T": "Tambahan", "Pengerasan": "Aspal", "SET_BUF": 0.0 }, "geometry": { "type": "MultiLineString", "coordinates": [ [ [ 110.657196514789348, -7.607630745430601 ], [ 110.657033451026308, -7.607599578769983 ] ] ] } },
{ "type": "Feature", "properties": { "Id": 0, "as_jalan": 0.0, "Keterangan": "Jalan Setapak", "setjalan": 0.0, "Lebar_Jala": 1.4, "Nama_Jalan": null, "Tambahan_T": "Tambahan", "Pengerasan": "Aspal", "SET_BUF": 0.0 }, "geometry": { "type": "MultiLineString", "coordinates": [ [ [ 110.657468592975192, -7.607966672915434 ], [ 110.657501286302093, -7.607820623615893 ], [ 110.657534957991686, -7.607706967960226 ], [ 110.657556634367808, -7.607595696140998 ], [ 110.657593025797709, -7.607335623492254 ] ] ] } },
{ "type": "Feature", "properties": { "Id": 0, "as_jalan": 0.0, "Keterangan": "Jalan Setapak", "setjalan": 0.0, "Lebar_Jala": 2.7, "Nama_Jalan": null, "Tambahan_T": "Tambahan", "Pengerasan": "Aspal", "SET_BUF": 0.0 }, "geometry": { "type": "MultiLineString", "coordinates": [ [ [ 110.65788236678209, -7.607369577555795 ], [ 110.657878842740359, -7.607613900229765 ], [ 110.657870821286735, -7.607747440626762 ], [ 110.657861038932381, -7.607832874093662 ], [ 110.657859480252029, -7.607983651421756 ], [ 110.657824227540218, -7.608132873856285 ] ] ] } },
{ "type": "Feature", "properties": { "Id": 0, "as_jalan": 0.0, "Keterangan": "Jalan Setapak", "setjalan": 0.0, "Lebar_Jala": 1.9, "Nama_Jalan": null, "Tambahan_T": "Tambahan", "Pengerasan": "Aspal", "SET_BUF": 0.0 }, "geometry": { "type": "MultiLineString", "coordinates": [ [ [ 110.658629261073116, -7.60826876911316 ], [ 110.658960512214577, -7.608307080986576 ] ] ] } },
{ "type": "Feature", "properties": { "Id": 0, "as_jalan": 0.0, "Keterangan": "Jalan Setapak", "setjalan": 0.0, "Lebar_Jala": 1.8, "Nama_Jalan": null, "Tambahan_T": "Tambahan", "Pengerasan": "Aspal", "SET_BUF": 0.0 }, "geometry": { "type": "MultiLineString", "coordinates": [ [ [ 110.658490496892767, -7.608575458089056 ], [ 110.658599388652448, -7.608339345900016 ], [ 110.658679894964578, -7.608149141071145 ], [ 110.658758260999946, -7.607924979999664 ] ] ] } },
{ "type": "Feature", "properties": { "Id": 0, "as_jalan": 3.0, "Keterangan": "Jalan Lain", "setjalan": 1.5, "Lebar_Jala": 3.0, "Nama_Jalan": null, "Tambahan_T": "Tambahan", "Pengerasan": "Aspal", "SET_BUF": 0.0 }, "geometry": { "type": "MultiLineString", "coordinates": [ [ [ 110.658302581686371, -7.611024540305801 ], [ 110.658746412649151, -7.611044277374805 ], [ 110.658995871274655, -7.611052132243571 ], [ 110.659178486372241, -7.61105967914226 ], [ 110.659234142990954, -7.611051106972759 ], [ 110.659283080228008, -7.61104635881228 ] ] ] } },
{ "type": "Feature", "properties": { "Id": 0, "as_jalan": 0.0, "Keterangan": "Jalan Setapak", "setjalan": 0.0, "Lebar_Jala": 2.3, "Nama_Jalan": null, "Tambahan_T": "Tambahan", "Pengerasan": "Aspal", "SET_BUF": 0.0 }, "geometry": { "type": "MultiLineString", "coordinates": [ [ [ 110.658951261891801, -7.61068980580793 ], [ 110.659040175314644, -7.610485247695064 ], [ 110.659100290138369, -7.610298616746459 ], [ 110.659144746309252, -7.610196935999792 ] ] ] } },
{ "type": "Feature", "properties": { "Id": 0, "as_jalan": 0.0, "Keterangan": "Jalan Setapak", "setjalan": 0.0, "Lebar_Jala": 2.5, "Nama_Jalan": null, "Tambahan_T": "Tambahan", "Pengerasan": "Aspal", "SET_BUF": 0.0 }, "geometry": { "type": "MultiLineString", "coordinates": [ [ [ 110.659060685505892, -7.610421572299026 ], [ 110.659325827543711, -7.610519901554289 ] ] ] } },
{ "type": "Feature", "properties": { "Id": 0, "as_jalan": 0.0, "Keterangan": "Jalan Setapak", "setjalan": 0.0, "Lebar_Jala": 1.5, "Nama_Jalan": null, "Tambahan_T": "Tambahan", "Pengerasan": "Aspal", "SET_BUF": 0.0 }, "geometry": { "type": "MultiLineString", "coordinates": [ [ [ 110.659169080791486, -7.610820053508924 ], [ 110.658951261891801, -7.61068980580793 ], [ 110.658810249859229, -7.610624756379044 ] ] ] } },
{ "type": "Feature", "properties": { "Id": 0, "as_jalan": 0.0, "Keterangan": "Jalan Setapak", "setjalan": 0.0, "Lebar_Jala": 1.5, "Nama_Jalan": null, "Tambahan_T": "Tambahan", "Pengerasan": "Aspal", "SET_BUF": 0.0 }, "geometry": { "type": "MultiLineString", "coordinates": [ [ [ 110.659169080791486, -7.610820053508924 ], [ 110.659385700948107, -7.610924372633641 ] ] ] } },
{ "type": "Feature", "properties": { "Id": 0, "as_jalan": 0.0, "Keterangan": "Jalan Setapak", "setjalan": 0.0, "Lebar_Jala": 1.4, "Nama_Jalan": null, "Tambahan_T": "Tambahan", "Pengerasan": "Aspal", "SET_BUF": 0.0 }, "geometry": { "type": "MultiLineString", "coordinates": [ [ [ 110.659680643309486, -7.611157510974859 ], [ 110.659721273817368, -7.611057783975807 ], [ 110.659734287923797, -7.610980250927866 ], [ 110.659763391386818, -7.610786419969686 ], [ 110.659780616852288, -7.610632778587892 ], [ 110.65979847849988, -7.610491587276621 ], [ 110.659812763559557, -7.610371907482814 ] ] ] } },
{ "type": "Feature", "properties": { "Id": 0, "as_jalan": 0.0, "Keterangan": "Jalan Setapak", "setjalan": 0.0, "Lebar_Jala": 1.8, "Nama_Jalan": null, "Tambahan_T": "Tambahan", "Pengerasan": "Aspal", "SET_BUF": 0.0 }, "geometry": { "type": "MultiLineString", "coordinates": [ [ [ 110.659745272244422, -7.610907094661522 ], [ 110.660054972075699, -7.611008264888309 ] ] ] } },
{ "type": "Feature", "properties": { "Id": 0, "as_jalan": 0.0, "Keterangan": "Jalan Setapak", "setjalan": 0.0, "Lebar_Jala": 1.8, "Nama_Jalan": null, "Tambahan_T": "Tambahan", "Pengerasan": "Aspal", "SET_BUF": 0.0 }, "geometry": { "type": "MultiLineString", "coordinates": [ [ [ 110.66021059798463, -7.610620243267853 ], [ 110.660143905786654, -7.610777380130666 ], [ 110.660088619828144, -7.610924525396799 ], [ 110.660054972075699, -7.611008264888309 ], [ 110.65996039545054, -7.611288414208263 ] ] ] } },
{ "type": "Feature", "properties": { "Id": 0, "as_jalan": 0.0, "Keterangan": "Jalan Setapak", "setjalan": 0.0, "Lebar_Jala": 2.2, "Nama_Jalan": null, "Tambahan_T": "Tambahan", "Pengerasan": "Aspal", "SET_BUF": 0.0 }, "geometry": { "type": "MultiLineString", "coordinates": [ [ [ 110.660088619828144, -7.610924525396799 ], [ 110.660459945563943, -7.611067396706272 ] ] ] } },
{ "type": "Feature", "properties": { "Id": 0, "as_jalan": 3.0, "Keterangan": "Jalan Lain", "setjalan": 1.5, "Lebar_Jala": 4.6, "Nama_Jalan": null, "Tambahan_T": null, "Pengerasan": "Aspal", "SET_BUF": 0.0 }, "geometry": { "type": "MultiLineString", "coordinates": [ [ [ 110.658439716151292, -7.610130150591054 ], [ 110.658307049921902, -7.610810064922345 ], [ 110.658301101269487, -7.611095600243275 ], [ 110.658226275871925, -7.611269732324921 ], [ 110.658189870520545, -7.611364855577844 ] ] ] } }
]
}
