{
"type": "FeatureCollection",
"name": "Jalan",
"crs": { "type": "name", "properties": { "name": "urn:ogc:def:crs:EPSG::32749" } },
"features": [
{ "type": "Feature", "properties": { "Id": 0, "as_jalan": 2.5, "Keterangan": "Jalan Setapak", "setjalan": 1.25, "Lebar_Jala": 2.6, "Nama_Jalan": null, "Tambahan_T": null, "Pengerasan": "Beton", "SET_BUF": 0.0 }, "geometry": { "type": "MultiLineString", "coordinates": [ [ [ 462681.895779899321496, 9158612.211524277925491 ], [ 462681.370753672148567, 9158611.066204419359565 ] ], [ [ 462667.558711616205983, 9158589.639335049316287 ], [ 462664.335699851100799, 9158586.860876629129052 ] ], [ [ 462642.860629682254512, 9158578.010982310399413 ], [ 462634.805374198593199, 9158572.855618800967932 ], [ 462630.87001682765549, 9158570.676036257296801 ] ], [ [ 462621.907193971623201, 9158565.712011290714145 ], [ 462621.047013349831104, 9158565.235603561624885 ], [ 462617.448672819882631, 9158559.097257954999804 ], [ 462615.997224183753133, 9158553.487643927335739 ] ] ] } },
{ "type": "Feature", "properties": { "Id": 0, "as_jalan": 2.5, "Keterangan": "Jalan Setapak", "setjalan": 1.25, "Lebar_Jala": 3.0, "Nama_Jalan": null, "Tambahan_T": null, "Pengerasan": "Tanah", "SET_BUF": 0.0 }, "geometry": { "type": "MultiLineString", "coordinates": [ [ [ 463616.417240079492331, 9158670.636432591825724 ], [ 463665.480041746981442, 9158652.656520374119282 ], [ 463728.318709091283381, 9158628.314805025234818 ], [ 463790.495916778221726, 9158605.82517671212554 ], [ 463847.116863353177905, 9158584.658467713743448 ], [ 463977.192904756404459, 9158533.560709267854691 ] ] ] } },
{ "type": "Feature", "properties": { "Id": 0, "as_jalan": 2.5, "Keterangan": "Jalan Setapak", "setjalan": 1.25, "Lebar_Jala": 2.0, "Nama_Jalan": null, "Tambahan_T": null, "Pengerasan": "Beton", "SET_BUF": 0.0 }, "geometry": { "type": "MultiLineString", "coordinates": [ [ [ 463296.565357469022274, 9158788.871449885889888 ], [ 463311.119567365385592, 9158816.704027321189642 ], [ 463314.294573715887964, 9158816.492360228672624 ], [ 463339.271290335804224, 9158800.193994300439954 ], [ 463337.154619436711073, 9158790.880642339587212 ], [ 463329.322937106713653, 9158773.947275139391422 ], [ 463319.792711237445474, 9158755.151184037327766 ] ] ] } },
{ "type": "Feature", "properties": { "Id": 0, "as_jalan": 2.5, "Keterangan": "Jalan Setapak", "setjalan": 1.25, "Lebar_Jala": 2.5, "Nama_Jalan": null, "Tambahan_T": "Tambahan", "Pengerasan": "Tanah", "SET_BUF": 0.0 }, "geometry": { "type": "MultiLineString", "coordinates": [ [ [ 462648.174547124654055, 9159108.936660092324018 ], [ 462644.434683404862881, 9159094.799763351678848 ], [ 462639.83092419616878, 9159075.432224616408348 ], [ 462635.862166260369122, 9159067.177208106964827 ], [ 462627.765900066122413, 9159059.557192865759134 ], [ 462616.653377841226757, 9159050.984675722196698 ], [ 462609.033362600952387, 9159032.569638891145587 ], [ 462604.588353711180389, 9159025.743375238031149 ], [ 462599.667093867436051, 9159020.345864444971085 ], [ 462586.866680999286473, 9158970.194026624783874 ] ] ] } },
{ "type": "Feature", "properties": { "Id": 0, "as_jalan": 3.0, "Keterangan": "Jalan Lain", "setjalan": 1.5, "Lebar_Jala": 2.5, "Nama_Jalan": null, "Tambahan_T": null, "Pengerasan": "Tanah", "SET_BUF": 0.0 }, "geometry": { "type": "MultiLineString", "coordinates": [ [ [ 464050.411804831470363, 9158139.823061568662524 ], [ 464064.984338753856719, 9158189.330947209149599 ], [ 464079.207596550346352, 9158234.667581437155604 ] ] ] } },
{ "type": "Feature", "properties": { "Id": 0, "as_jalan": 3.0, "Keterangan": "Jalan Lain", "setjalan": 1.5, "Lebar_Jala": 4.6, "Nama_Jalan": null, "Tambahan_T": null, "Pengerasan": "Aspal", "SET_BUF": 0.0 }, "geometry": { "type": "MultiLineString", "coordinates": [ [ [ 463915.639527865103446, 9158191.792043063789606 ], [ 463904.188250971026719, 9158196.320327302441001 ], [ 463814.925760900601745, 9158231.238682126626372 ], [ 463794.382123443239834, 9158239.193729754537344 ] ], [ [ 463530.64865392097272, 9158343.631160851567984 ], [ 463507.326038111932576, 9158353.419286230579019 ] ] ] } },
{ "type": "Feature", "properties": { "Id": 0, "as_jalan": 3.0, "Keterangan": "Jalan Lain", "setjalan": 1.5, "Lebar_Jala": 5.0, "Nama_Jalan": null, "Tambahan_T": null, "Pengerasan": "Tanah", "SET_BUF": 0.0 }, "geometry": { "type": "MultiLineString", "coordinates": [ [ [ 464105.369912203459535, 9158322.706615090370178 ], [ 463566.858150376006961, 9158527.106024527922273 ] ] ] } },
{ "type": "Feature", "properties": { "Id": 0, "as_jalan": 3.0, "Keterangan": "Jalan Lain", "setjalan": 1.5, "Lebar_Jala": 3.1, "Nama_Jalan": null, "Tambahan_T": null, "Pengerasan": "Aspal", "SET_BUF": 0.0 }, "geometry": { "type": "MultiLineString", "coordinates": [ [ [ 463507.326038111932576, 9158353.419286230579019 ], [ 463507.308372080442496, 9158353.369447680190206 ] ] ] } },
{ "type": "Feature", "properties": { "Id": 0, "as_jalan": 3.0, "Keterangan": "Jalan Lain", "setjalan": 1.5, "Lebar_Jala": 4.6, "Nama_Jalan": null, "Tambahan_T": null, "Pengerasan": "Aspal", "SET_BUF": 0.0 }, "geometry": { "type": "MultiLineString", "coordinates": [ [ [ 463507.326038111932576, 9158353.419286230579019 ], [ 463506.777156740019564, 9158353.624783642590046 ] ], [ [ 463235.626784516673069, 9158455.084853440523148 ], [ 463218.441371417604387, 9158461.216601364314556 ], [ 463201.201452844834421, 9158466.644806399941444 ] ], [ [ 463141.818788743228652, 9158482.49987461604178 ], [ 463126.036443517543375, 9158485.609171934425831 ], [ 463070.649147466756403, 9158496.088438918814063 ], [ 463031.973857179458719, 9158504.195901934057474 ] ], [ [ 462978.439714272681158, 9158516.333531005308032 ], [ 462955.40855795238167, 9158522.304372070357203 ], [ 462920.648219988972414, 9158533.734549339860678 ] ] ] } },
{ "type": "Feature", "properties": { "Id": 0, "as_jalan": 3.0, "Keterangan": "Jalan Lain", "setjalan": 1.5, "Lebar_Jala": 3.8, "Nama_Jalan": null, "Tambahan_T": null, "Pengerasan": "Aspal", "SET_BUF": 0.0 }, "geometry": { "type": "MultiLineString", "coordinates": [ [ [ 463566.858150376006961, 9158527.106024527922273 ], [ 463561.648722223006189, 9158512.117645777761936 ], [ 463542.272283847443759, 9158452.389879181981087 ], [ 463530.749176973477006, 9158419.499482598155737 ], [ 463507.326038111932576, 9158353.419286230579019 ] ] ] } },
{ "type": "Feature", "properties": { "Id": 0, "as_jalan": 3.0, "Keterangan": "Jalan Lain", "setjalan": 1.5, "Lebar_Jala": 4.5, "Nama_Jalan": null, "Tambahan_T": null, "Pengerasan": "Tanah", "SET_BUF": 0.0 }, "geometry": { "type": "MultiLineString", "coordinates": [ [ [ 463566.858150376006961, 9158527.106024527922273 ], [ 463066.723617846146226, 9158705.015962885692716 ], [ 462738.971064095327165, 9158801.431658567860723 ] ] ] } },
{ "type": "Feature", "properties": { "Id": 0, "as_jalan": 3.0, "Keterangan": "Jalan Lain", "setjalan": 1.5, "Lebar_Jala": 3.0, "Nama_Jalan": null, "Tambahan_T": null, "Pengerasan": "Beton", "SET_BUF": 0.0 }, "geometry": { "type": "MultiLineString", "coordinates": [ [ [ 462616.410971545439679, 9158553.386368080973625 ], [ 462586.969755362719297, 9158560.592901287600398 ] ] ] } },
{ "type": "Feature", "properties": { "Id": 0, "as_jalan": 3.0, "Keterangan": "Jalan Lain", "setjalan": 1.5, "Lebar_Jala": 4.6, "Nama_Jalan": null, "Tambahan_T": null, "Pengerasan": "Aspal", "SET_BUF": 0.0 }, "geometry": { "type": "MultiLineString", "coordinates": [ [ [ 462690.662004987359978, 9158608.939237680286169 ], [ 462677.39085846953094, 9158613.893136812373996 ], [ 462648.767344337888062, 9158633.336651721969247 ], [ 462601.755421650595963, 9158673.283867668360472 ], [ 462561.048075844533741, 9158706.133558567613363 ], [ 462550.80710409488529, 9158713.144502097740769 ] ] ] } },
{ "type": "Feature", "properties": { "Id": 0, "as_jalan": 3.0, "Keterangan": "Jalan Lain", "setjalan": 1.5, "Lebar_Jala": 2.8, "Nama_Jalan": null, "Tambahan_T": null, "Pengerasan": "Aspal", "SET_BUF": 0.0 }, "geometry": { "type": "MultiLineString", "coordinates": [ [ [ 463601.956655544228852, 9158627.695080075412989 ], [ 463584.694643548689783, 9158578.424518840387464 ], [ 463566.858150376006961, 9158527.106024527922273 ] ] ] } },
{ "type": "Feature", "properties": { "Id": 0, "as_jalan": 3.0, "Keterangan": "Jalan Lain", "setjalan": 1.5, "Lebar_Jala": 3.2, "Nama_Jalan": null, "Tambahan_T": null, "Pengerasan": "Aspal", "SET_BUF": 0.0 }, "geometry": { "type": "MultiLineString", "coordinates": [ [ [ 463601.956655544228852, 9158627.695080075412989 ], [ 463539.847593801096082, 9158643.268155228346586 ], [ 463529.825613371096551, 9158646.025805966928601 ] ] ] } },
{ "type": "Feature", "properties": { "Id": 0, "as_jalan": 3.0, "Keterangan": "Jalan Lain", "setjalan": 1.5, "Lebar_Jala": 3.0, "Nama_Jalan": null, "Tambahan_T": null, "Pengerasan": "Aspal", "SET_BUF": 0.0 }, "geometry": { "type": "MultiLineString", "coordinates": [ [ [ 463529.825613371096551, 9158646.025805966928601 ], [ 463536.04230890981853, 9158676.184640353545547 ], [ 463536.860215918160975, 9158680.146709365770221 ] ] ] } },
{ "type": "Feature", "properties": { "Id": 0, "as_jalan": 3.0, "Keterangan": "Jalan Lain", "setjalan": 1.5, "Lebar_Jala": 3.2, "Nama_Jalan": null, "Tambahan_T": null, "Pengerasan": "Aspal", "SET_BUF": 0.0 }, "geometry": { "type": "MultiLineString", "coordinates": [ [ [ 463529.825613371096551, 9158646.025805966928601 ], [ 463517.205538775771856, 9158649.498348962515593 ], [ 463498.83073696307838, 9158652.772454114630818 ], [ 463476.1854964857921, 9158663.150090519338846 ], [ 463445.62427765224129, 9158677.121090479195118 ], [ 463429.021797535941005, 9158696.574268382042646 ], [ 463409.160342113114893, 9158721.812101459130645 ], [ 463404.746518629603088, 9158724.85591185092926 ] ] ] } },
{ "type": "Feature", "properties": { "Id": 0, "as_jalan": 3.0, "Keterangan": "Jalan Lain", "setjalan": 1.5, "Lebar_Jala": 3.8, "Nama_Jalan": null, "Tambahan_T": null, "Pengerasan": "Aspal", "SET_BUF": 0.0 }, "geometry": { "type": "MultiLineString", "coordinates": [ [ [ 463614.658267409540713, 9158665.277904994785786 ], [ 463607.741033832542598, 9158644.205271165817976 ], [ 463601.956655544228852, 9158627.695080075412989 ] ] ] } },
{ "type": "Feature", "properties": { "Id": 0, "as_jalan": 3.0, "Keterangan": "Jalan Lain", "setjalan": 1.5, "Lebar_Jala": 3.4, "Nama_Jalan": null, "Tambahan_T": null, "Pengerasan": "Aspal", "SET_BUF": 0.0 }, "geometry": { "type": "MultiLineString", "coordinates": [ [ [ 463614.658267409540713, 9158665.277904994785786 ], [ 463604.70182122848928, 9158668.644000269472599 ], [ 463591.737211965955794, 9158672.480466278269887 ], [ 463586.842410510405898, 9158673.274217864498496 ], [ 463575.597596354782581, 9158674.729429107159376 ], [ 463536.860215918160975, 9158680.146709365770221 ] ] ] } },
{ "type": "Feature", "properties": { "Id": 0, "as_jalan": 3.0, "Keterangan": "Jalan Lain", "setjalan": 1.5, "Lebar_Jala": 2.8, "Nama_Jalan": null, "Tambahan_T": null, "Pengerasan": "Aspal", "SET_BUF": 0.0 }, "geometry": { "type": "MultiLineString", "coordinates": [ [ [ 463536.860215918160975, 9158680.146709365770221 ], [ 463541.135548263788223, 9158700.857085529714823 ], [ 463541.267840194515884, 9158704.098237847909331 ], [ 463538.754293501377106, 9158705.619595056399703 ], [ 463499.900153291411698, 9158712.591379832476377 ], [ 463466.00696050748229, 9158718.623891899362206 ], [ 463445.290044073946774, 9158722.592649832367897 ] ] ] } },
{ "type": "Feature", "properties": { "Id": 0, "as_jalan": 3.0, "Keterangan": "Jalan Lain", "setjalan": 1.5, "Lebar_Jala": 3.8, "Nama_Jalan": null, "Tambahan_T": null, "Pengerasan": "Aspal", "SET_BUF": 0.0 }, "geometry": { "type": "MultiLineString", "coordinates": [ [ [ 463625.906783104874194, 9158699.051558012142777 ], [ 463624.237784346565604, 9158694.460908636450768 ], [ 463614.658267409540713, 9158665.277904994785786 ] ] ] } },
{ "type": "Feature", "properties": { "Id": 0, "as_jalan": 3.0, "Keterangan": "Jalan Lain", "setjalan": 1.5, "Lebar_Jala": 3.6, "Nama_Jalan": null, "Tambahan_T": null, "Pengerasan": "Beton", "SET_BUF": 0.0 }, "geometry": { "type": "MultiLineString", "coordinates": [ [ [ 463625.906783104874194, 9158699.051558012142777 ], [ 463597.524983958341181, 9158708.929649421945214 ], [ 463588.740799724124372, 9158712.316322861239314 ], [ 463572.759934429079294, 9158729.99052487872541 ], [ 463567.574090724810958, 9158732.213029321283102 ], [ 463563.658249559812248, 9158734.964701490476727 ], [ 463560.58907675370574, 9158740.468045834451914 ], [ 463546.936549447476864, 9158781.637294836342335 ], [ 463544.714045003987849, 9158784.706467639654875 ], [ 463542.174039923585951, 9158785.976470183581114 ], [ 463538.893200027756393, 9158785.870636636391282 ], [ 463512.963981503620744, 9158776.980618856847286 ], [ 463509.471474518999457, 9158777.086452398449183 ], [ 463488.093098429962993, 9158806.614011453464627 ], [ 463478.885580012574792, 9158811.905688704922795 ], [ 463462.163879903033376, 9158817.514866588637233 ], [ 463459.729708367958665, 9158819.949038123711944 ] ] ] } },
{ "type": "Feature", "properties": { "Id": 0, "as_jalan": 3.0, "Keterangan": "Jalan Lain", "setjalan": 1.5, "Lebar_Jala": 4.6, "Nama_Jalan": null, "Tambahan_T": null, "Pengerasan": "Aspal", "SET_BUF": 0.0 }, "geometry": { "type": "MultiLineString", "coordinates": [ [ [ 462550.80710409488529, 9158713.144502097740769 ], [ 462526.121860382147133, 9158730.043957917019725 ], [ 462508.002894361503422, 9158741.604053827002645 ] ] ] } },
{ "type": "Feature", "properties": { "Id": 0, "as_jalan": 3.0, "Keterangan": "Jalan Lain", "setjalan": 1.5, "Lebar_Jala": 2.8, "Nama_Jalan": null, "Tambahan_T": null, "Pengerasan": "Aspal", "SET_BUF": 0.0 }, "geometry": { "type": "MultiLineString", "coordinates": [ [ [ 463445.290044073946774, 9158722.592649832367897 ], [ 463427.192507877014577, 9158725.370780389755964 ], [ 463412.746228985488415, 9158727.434534516185522 ], [ 463408.459970411844552, 9158727.117033880203962 ], [ 463404.746518629603088, 9158724.85591185092926 ] ] ] } },
{ "type": "Feature", "properties": { "Id": 0, "as_jalan": 3.0, "Keterangan": "Jalan Lain", "setjalan": 1.5, "Lebar_Jala": 3.2, "Nama_Jalan": null, "Tambahan_T": null, "Pengerasan": "Aspal", "SET_BUF": 0.0 }, "geometry": { "type": "MultiLineString", "coordinates": [ [ [ 463404.746518629603088, 9158724.85591185092926 ], [ 463401.387361253611743, 9158727.172415480017662 ], [ 463389.414991113357246, 9158732.529506577178836 ], [ 463376.394386360421777, 9158735.781368585303426 ], [ 463372.19297937117517, 9158738.408670919016004 ], [ 463363.860806590877473, 9158743.496406923979521 ] ] ] } },
{ "type": "Feature", "properties": { "Id": 0, "as_jalan": 3.0, "Keterangan": "Jalan Lain", "setjalan": 1.5, "Lebar_Jala": 2.7, "Nama_Jalan": null, "Tambahan_T": null, "Pengerasan": "Aspal", "SET_BUF": 0.0 }, "geometry": { "type": "MultiLineString", "coordinates": [ [ [ 462418.330393991433084, 9158686.377938341349363 ], [ 462432.829589656554163, 9158682.356263630092144 ], [ 462446.270449871197343, 9158678.863756645470858 ], [ 462459.711310086771846, 9158675.053749026730657 ], [ 462468.052938306704164, 9158671.929376777261496 ], [ 462475.461286458186805, 9158667.907702064141631 ], [ 462484.562971329316497, 9158663.356859631836414 ], [ 462494.828825194388628, 9158658.911850742995739 ], [ 462508.163851862773299, 9158653.514339944347739 ], [ 462514.513864563778043, 9158652.456004494801164 ], [ 462527.425557052716613, 9158648.328496240079403 ], [ 462531.870565943419933, 9158650.551000691950321 ], [ 462537.056409650482237, 9158656.160178570076823 ], [ 462543.406422348693013, 9158665.050196349620819 ], [ 462547.428097058087587, 9158671.18854196369648 ], [ 462548.380598966032267, 9158688.439409794285893 ], [ 462550.80710409488529, 9158713.144502097740769 ] ] ] } },
{ "type": "Feature", "properties": { "Id": 0, "as_jalan": 3.0, "Keterangan": "Jalan Lain", "setjalan": 1.5, "Lebar_Jala": 2.0, "Nama_Jalan": null, "Tambahan_T": "Tambahan", "Pengerasan": "Aspal", "SET_BUF": 0.0 }, "geometry": { "type": "MultiLineString", "coordinates": [ [ [ 462419.226061315275729, 9158737.507428286597133 ], [ 462459.852348585613072, 9158720.205641359090805 ], [ 462471.287555227056146, 9158715.156243229284883 ] ] ] } },
{ "type": "Feature", "properties": { "Id": 0, "as_jalan": 3.0, "Keterangan": "Jalan Lain", "setjalan": 1.5, "Lebar_Jala": 2.8, "Nama_Jalan": null, "Tambahan_T": null, "Pengerasan": "Aspal", "SET_BUF": 0.0 }, "geometry": { "type": "MultiLineString", "coordinates": [ [ [ 462508.002894361503422, 9158741.604053827002645 ], [ 462455.702506082132459, 9158773.98354903422296 ], [ 462443.159159588627517, 9158782.376990126445889 ] ] ] } },
{ "type": "Feature", "properties": { "Id": 0, "as_jalan": 3.0, "Keterangan": "Jalan Lain", "setjalan": 1.5, "Lebar_Jala": 4.6, "Nama_Jalan": null, "Tambahan_T": null, "Pengerasan": "Aspal", "SET_BUF": 0.0 }, "geometry": { "type": "MultiLineString", "coordinates": [ [ [ 462508.002894361503422, 9158741.604053827002645 ], [ 462510.355338930152357, 9158753.969389395788312 ], [ 462538.374969671480358, 9158835.274743406102061 ], [ 462539.678609974682331, 9158846.323988677933812 ], [ 462537.768832772038877, 9158850.653331659734249 ] ] ] } },
{ "type": "Feature", "properties": { "Id": 0, "as_jalan": 3.0, "Keterangan": "Jalan Lain", "setjalan": 1.5, "Lebar_Jala": 3.2, "Nama_Jalan": null, "Tambahan_T": null, "Pengerasan": "Aspal", "SET_BUF": 0.0 }, "geometry": { "type": "MultiLineString", "coordinates": [ [ [ 463363.860806590877473, 9158743.496406923979521 ], [ 463357.908353650011122, 9158747.131054198369384 ], [ 463354.54714563023299, 9158749.338115885853767 ], [ 463347.932703672908247, 9158749.859141306951642 ], [ 463340.05860644672066, 9158750.168755944818258 ], [ 463329.560375903733075, 9158749.845026256516576 ], [ 463322.105165961198509, 9158751.522833991795778 ], [ 463317.480256512761116, 9158758.7795340847224 ], [ 463309.595073863863945, 9158773.504424495622516 ], [ 463294.883850012905896, 9158790.854591114446521 ], [ 463287.322595111094415, 9158793.900186320766807 ], [ 463272.201054073870182, 9158798.728720923885703 ], [ 463233.764400231651962, 9158814.534898340702057 ], [ 463189.657763020135462, 9158831.336273184046149 ], [ 463117.720115986652672, 9158861.005693584680557 ], [ 463021.63152960408479, 9158896.180411679670215 ], [ 462962.03432569745928, 9158919.545897891744971 ], [ 462939.088858271017671, 9158929.310822272673249 ] ] ] } },
{ "type": "Feature", "properties": { "Id": 0, "as_jalan": 3.0, "Keterangan": "Jalan Lain", "setjalan": 1.5, "Lebar_Jala": 2.5, "Nama_Jalan": null, "Tambahan_T": null, "Pengerasan": "Aspal", "SET_BUF": 0.0 }, "geometry": { "type": "MultiLineString", "coordinates": [ [ [ 462443.15915958955884, 9158782.376990128308535 ], [ 462419.226061315275729, 9158737.507428286597133 ], [ 462405.736202136613429, 9158711.38640502654016 ] ] ] } },
{ "type": "Feature", "properties": { "Id": 0, "as_jalan": 3.0, "Keterangan": "Jalan Lain", "setjalan": 1.5, "Lebar_Jala": 2.8, "Nama_Jalan": null, "Tambahan_T": null, "Pengerasan": "Aspal", "SET_BUF": 0.0 }, "geometry": { "type": "MultiLineString", "coordinates": [ [ [ 462443.159159588627517, 9158782.376990126445889 ], [ 462424.781273742206395, 9158794.674630384892225 ], [ 462408.041790921241045, 9158804.197116101160645 ], [ 462378.834559275768697, 9158814.696217659860849 ], [ 462333.34682616405189, 9158829.296843271702528 ] ] ] } },
{ "type": "Feature", "properties": { "Id": 0, "as_jalan": 3.0, "Keterangan": "Jalan Lain", "setjalan": 1.5, "Lebar_Jala": 3.4, "Nama_Jalan": null, "Tambahan_T": null, "Pengerasan": "Aspal", "SET_BUF": 0.0 }, "geometry": { "type": "MultiLineString", "coordinates": [ [ [ 462443.159159588627517, 9158782.376990126445889 ], [ 462455.514205329120159, 9158829.842690452933311 ] ] ] } },
{ "type": "Feature", "properties": { "Id": 0, "as_jalan": 3.0, "Keterangan": "Jalan Lain", "setjalan": 1.5, "Lebar_Jala": 4.6, "Nama_Jalan": null, "Tambahan_T": null, "Pengerasan": "Tanah", "SET_BUF": 0.0 }, "geometry": { "type": "MultiLineString", "coordinates": [ [ [ 462297.863748407748062, 9158646.727016473188996 ], [ 462304.377812890452333, 9158638.155878996476531 ] ] ] } },
{ "type": "Feature", "properties": { "Id": 0, "as_jalan": 3.0, "Keterangan": "Jalan Lain", "setjalan": 1.5, "Lebar_Jala": 2.5, "Nama_Jalan": null, "Tambahan_T": "Tambahan", "Pengerasan": "Aspal", "SET_BUF": 0.0 }, "geometry": { "type": "MultiLineString", "coordinates": [ [ [ 462325.224828619509935, 9158787.592702765017748 ], [ 462327.496068650856614, 9158782.615830792114139 ], [ 462333.052329762838781, 9158777.694570949301124 ], [ 462339.164216985926032, 9158773.567062694579363 ], [ 462374.025826216675341, 9158756.65670389868319 ], [ 462391.488361141644418, 9158748.388458196073771 ] ] ] } },
{ "type": "Feature", "properties": { "Id": 0, "as_jalan": 3.0, "Keterangan": "Jalan Lain", "setjalan": 1.5, "Lebar_Jala": 3.0, "Nama_Jalan": null, "Tambahan_T": null, "Pengerasan": "Aspal", "SET_BUF": 0.0 }, "geometry": { "type": "MultiLineString", "coordinates": [ [ [ 462330.06714703142643, 9158812.468847639858723 ], [ 462326.334531052038074, 9158793.316821649670601 ], [ 462325.224828618578613, 9158787.592702765017748 ] ] ] } },
{ "type": "Feature", "properties": { "Id": 0, "as_jalan": 3.0, "Keterangan": "Jalan Lain", "setjalan": 1.5, "Lebar_Jala": 2.0, "Nama_Jalan": null, "Tambahan_T": null, "Pengerasan": "Aspal", "SET_BUF": 0.0 }, "geometry": { "type": "MultiLineString", "coordinates": [ [ [ 462330.06714703142643, 9158812.468847639858723 ], [ 462320.621229522977956, 9158815.241525322198868 ] ] ] } },
{ "type": "Feature", "properties": { "Id": 0, "as_jalan": 3.0, "Keterangan": "Jalan Lain", "setjalan": 1.5, "Lebar_Jala": 2.0, "Nama_Jalan": null, "Tambahan_T": null, "Pengerasan": "Beton", "SET_BUF": 0.0 }, "geometry": { "type": "MultiLineString", "coordinates": [ [ [ 463459.729708367958665, 9158819.949038123711944 ], [ 463458.148819789290428, 9158814.958876229822636 ], [ 463451.481306453235447, 9158765.428777173161507 ], [ 463445.290044073946774, 9158722.592649832367897 ] ] ] } },
{ "type": "Feature", "properties": { "Id": 0, "as_jalan": 3.0, "Keterangan": "Jalan Lain", "setjalan": 1.5, "Lebar_Jala": 2.6, "Nama_Jalan": null, "Tambahan_T": null, "Pengerasan": "Beton", "SET_BUF": 0.0 }, "geometry": { "type": "MultiLineString", "coordinates": [ [ [ 463425.757140424102545, 9158846.089923743158579 ], [ 463412.951281479559839, 9158832.119895799085498 ], [ 463397.922918086871505, 9158815.292362144216895 ], [ 463394.853745283558965, 9158811.376520980149508 ], [ 463390.30290284845978, 9158802.06316902115941 ], [ 463385.540393323637545, 9158796.242324044927955 ], [ 463363.860806590877473, 9158743.496406923979521 ] ] ] } },
{ "type": "Feature", "properties": { "Id": 0, "as_jalan": 3.0, "Keterangan": "Jalan Lain", "setjalan": 1.5, "Lebar_Jala": 3.0, "Nama_Jalan": null, "Tambahan_T": null, "Pengerasan": "Aspal", "SET_BUF": 0.0 }, "geometry": { "type": "MultiLineString", "coordinates": [ [ [ 462333.34682616405189, 9158829.296843271702528 ], [ 462330.06714703142643, 9158812.468847639858723 ] ] ] } },
{ "type": "Feature", "properties": { "Id": 0, "as_jalan": 3.0, "Keterangan": "Jalan Lain", "setjalan": 1.5, "Lebar_Jala": 3.5, "Nama_Jalan": null, "Tambahan_T": null, "Pengerasan": "Aspal", "SET_BUF": 0.0 }, "geometry": { "type": "MultiLineString", "coordinates": [ [ [ 462455.514205329120159, 9158829.842690452933311 ], [ 462379.910079040564597, 9158848.722963951528072 ], [ 462339.080136861652136, 9158858.714361255988479 ] ] ] } },
{ "type": "Feature", "properties": { "Id": 0, "as_jalan": 3.0, "Keterangan": "Jalan Lain", "setjalan": 1.5, "Lebar_Jala": 3.4, "Nama_Jalan": null, "Tambahan_T": null, "Pengerasan": "Aspal", "SET_BUF": 0.0 }, "geometry": { "type": "MultiLineString", "coordinates": [ [ [ 462455.514205329120159, 9158829.842690452933311 ], [ 462465.136828085407615, 9158873.441064650192857 ] ] ] } },
{ "type": "Feature", "properties": { "Id": 0, "as_jalan": 3.0, "Keterangan": "Jalan Lain", "setjalan": 1.5, "Lebar_Jala": 4.6, "Nama_Jalan": null, "Tambahan_T": null, "Pengerasan": "Aspal", "SET_BUF": 0.0 }, "geometry": { "type": "MultiLineString", "coordinates": [ [ [ 462537.768832772038877, 9158850.653331659734249 ], [ 462535.734650758095086, 9158855.264691520482302 ], [ 462528.119517671875656, 9158859.993665285408497 ], [ 462497.406015591695905, 9158866.808916069567204 ], [ 462465.136828085407615, 9158873.441064650192857 ] ] ] } },
{ "type": "Feature", "properties": { "Id": 0, "as_jalan": 3.0, "Keterangan": "Jalan Lain", "setjalan": 1.5, "Lebar_Jala": 3.7, "Nama_Jalan": null, "Tambahan_T": null, "Pengerasan": "Aspal", "SET_BUF": 0.0 }, "geometry": { "type": "MultiLineString", "coordinates": [ [ [ 462550.341918063350022, 9158856.921112829819322 ], [ 462546.012833403423429, 9158854.944818843156099 ], [ 462537.768832772038877, 9158850.653331659734249 ] ] ] } },
{ "type": "Feature", "properties": { "Id": 0, "as_jalan": 3.0, "Keterangan": "Jalan Lain", "setjalan": 1.5, "Lebar_Jala": 3.7, "Nama_Jalan": null, "Tambahan_T": null, "Pengerasan": "Aspal", "SET_BUF": 0.0 }, "geometry": { "type": "MultiLineString", "coordinates": [ [ [ 462550.341918063350022, 9158856.921112829819322 ], [ 462584.112054413184524, 9158968.613550115376711 ] ] ] } },
{ "type": "Feature", "properties": { "Id": 0, "as_jalan": 3.0, "Keterangan": "Jalan Lain", "setjalan": 1.5, "Lebar_Jala": 3.0, "Nama_Jalan": null, "Tambahan_T": null, "Pengerasan": "Aspal", "SET_BUF": 0.0 }, "geometry": { "type": "MultiLineString", "coordinates": [ [ [ 462339.080136861652136, 9158858.714361255988479 ], [ 462333.34682616405189, 9158829.296843271702528 ] ] ] } },
{ "type": "Feature", "properties": { "Id": 0, "as_jalan": 3.0, "Keterangan": "Jalan Lain", "setjalan": 1.5, "Lebar_Jala": 4.6, "Nama_Jalan": null, "Tambahan_T": null, "Pengerasan": "Aspal", "SET_BUF": 0.0 }, "geometry": { "type": "MultiLineString", "coordinates": [ [ [ 462465.136828085407615, 9158873.441064650192857 ], [ 462417.079384978860617, 9158883.318062599748373 ], [ 462374.289862935431302, 9158893.543412804603577 ], [ 462357.465813613496721, 9158903.588133528828621 ] ] ] } },
{ "type": "Feature", "properties": { "Id": 0, "as_jalan": 3.0, "Keterangan": "Jalan Lain", "setjalan": 1.5, "Lebar_Jala": 4.6, "Nama_Jalan": null, "Tambahan_T": null, "Pengerasan": "Aspal", "SET_BUF": 0.0 }, "geometry": { "type": "MultiLineString", "coordinates": [ [ [ 462357.465813613496721, 9158903.588133528828621 ], [ 462349.876423713751137, 9158908.119340365752578 ] ] ] } },
{ "type": "Feature", "properties": { "Id": 0, "as_jalan": 3.0, "Keterangan": "Jalan Lain", "setjalan": 1.5, "Lebar_Jala": 3.0, "Nama_Jalan": null, "Tambahan_T": null, "Pengerasan": "Aspal", "SET_BUF": 0.0 }, "geometry": { "type": "MultiLineString", "coordinates": [ [ [ 462349.876423713751137, 9158908.119340365752578 ], [ 462342.999044502153993, 9158878.822184583172202 ], [ 462339.080136861652136, 9158858.714361255988479 ] ] ] } },
{ "type": "Feature", "properties": { "Id": 0, "as_jalan": 3.0, "Keterangan": "Jalan Lain", "setjalan": 1.5, "Lebar_Jala": 4.6, "Nama_Jalan": null, "Tambahan_T": null, "Pengerasan": "Aspal", "SET_BUF": 0.0 }, "geometry": { "type": "MultiLineString", "coordinates": [ [ [ 462349.876423713751137, 9158908.119340365752578 ], [ 462341.72911016177386, 9158912.983650408685207 ], [ 462314.905621623620391, 9158928.56524876318872 ] ] ] } },
{ "type": "Feature", "properties": { "Id": 0, "as_jalan": 3.0, "Keterangan": "Jalan Lain", "setjalan": 1.5, "Lebar_Jala": 3.8, "Nama_Jalan": null, "Tambahan_T": null, "Pengerasan": "Aspal", "SET_BUF": 0.0 }, "geometry": { "type": "MultiLineString", "coordinates": [ [ [ 463674.273698348901235, 9158861.921327581629157 ], [ 463675.036163570359349, 9158851.015924843028188 ], [ 463673.866596291773021, 9158835.889508591964841 ], [ 463662.475127639248967, 9158802.210099402815104 ], [ 463651.214806734584272, 9158768.662312550470233 ], [ 463625.906783104874194, 9158699.051558012142777 ] ] ] } },
{ "type": "Feature", "properties": { "Id": 0, "as_jalan": 3.0, "Keterangan": "Jalan Lain", "setjalan": 1.5, "Lebar_Jala": 4.6, "Nama_Jalan": null, "Tambahan_T": null, "Pengerasan": "Aspal", "SET_BUF": 0.0 }, "geometry": { "type": "MultiLineString", "coordinates": [ [ [ 462314.905621623620391, 9158928.56524876318872 ], [ 462309.168745700269938, 9158931.897761223837733 ], [ 462285.172361369244754, 9158942.078542321920395 ] ] ] } },
{ "type": "Feature", "properties": { "Id": 0, "as_jalan": 3.0, "Keterangan": "Jalan Lain", "setjalan": 1.5, "Lebar_Jala": 2.8, "Nama_Jalan": null, "Tambahan_T": null, "Pengerasan": "Aspal", "SET_BUF": 0.0 }, "geometry": { "type": "MultiLineString", "coordinates": [ [ [ 462314.905621623620391, 9158928.56524876318872 ], [ 462330.690452431328595, 9158959.470585500821471 ] ] ] } },
{ "type": "Feature", "properties": { "Id": 0, "as_jalan": 3.0, "Keterangan": "Jalan Lain", "setjalan": 1.5, "Lebar_Jala": 3.2, "Nama_Jalan": null, "Tambahan_T": null, "Pengerasan": "Aspal", "SET_BUF": 0.0 }, "geometry": { "type": "MultiLineString", "coordinates": [ [ [ 462939.088858271017671, 9158929.310822272673249 ], [ 462937.354646950960159, 9158930.048851624131203 ], [ 462891.147470640018582, 9158947.637486476451159 ], [ 462847.563251848332584, 9158967.332542184740305 ], [ 462828.137087071314454, 9158972.315421100705862 ], [ 462806.61182720400393, 9158976.507498202845454 ], [ 462781.411667712032795, 9158981.222806101664901 ], [ 462738.626155856996775, 9158986.318955717608333 ], [ 462697.678081911988556, 9158991.153450477868319 ], [ 462677.466144611127675, 9158994.031232260167599 ], [ 462643.986803307197988, 9158999.439936012029648 ] ] ] } },
{ "type": "Feature", "properties": { "Id": 0, "as_jalan": 3.0, "Keterangan": "Jalan Lain", "setjalan": 1.5, "Lebar_Jala": 2.8, "Nama_Jalan": null, "Tambahan_T": null, "Pengerasan": "Aspal", "SET_BUF": 0.0 }, "geometry": { "type": "MultiLineString", "coordinates": [ [ [ 462389.066602556034923, 9158936.15657352656126 ], [ 462362.473049053922296, 9158908.889152634888887 ], [ 462357.465813613496721, 9158903.588133528828621 ] ] ] } },
{ "type": "Feature", "properties": { "Id": 0, "as_jalan": 3.0, "Keterangan": "Jalan Lain", "setjalan": 1.5, "Lebar_Jala": 2.8, "Nama_Jalan": null, "Tambahan_T": null, "Pengerasan": "Aspal", "SET_BUF": 0.0 }, "geometry": { "type": "MultiLineString", "coordinates": [ [ [ 462389.066602556034923, 9158936.15657352656126 ], [ 462330.690452431328595, 9158959.470585500821471 ] ] ] } },
{ "type": "Feature", "properties": { "Id": 0, "as_jalan": 3.0, "Keterangan": "Jalan Lain", "setjalan": 1.5, "Lebar_Jala": 4.6, "Nama_Jalan": null, "Tambahan_T": null, "Pengerasan": "Aspal", "SET_BUF": 0.0 }, "geometry": { "type": "MultiLineString", "coordinates": [ [ [ 462285.172361369244754, 9158942.078542321920395 ], [ 462283.176170429214835, 9158942.925452534109354 ], [ 462282.010795668466017, 9158942.979493722319603 ] ] ] } },
{ "type": "Feature", "properties": { "Id": 0, "as_jalan": 3.0, "Keterangan": "Jalan Lain", "setjalan": 1.5, "Lebar_Jala": 2.8, "Nama_Jalan": null, "Tambahan_T": null, "Pengerasan": "Aspal", "SET_BUF": 0.0 }, "geometry": { "type": "MultiLineString", "coordinates": [ [ [ 462330.690452431328595, 9158959.470585500821471 ], [ 462330.031850477680564, 9158959.733614534139633 ], [ 462297.68487904779613, 9158975.605880545452237 ] ] ] } },
{ "type": "Feature", "properties": { "Id": 0, "as_jalan": 3.0, "Keterangan": "Jalan Lain", "setjalan": 1.5, "Lebar_Jala": 3.6, "Nama_Jalan": null, "Tambahan_T": null, "Pengerasan": "Aspal", "SET_BUF": 0.0 }, "geometry": { "type": "MultiLineString", "coordinates": [ [ [ 462584.112054413184524, 9158968.613550115376711 ], [ 462586.866680999286473, 9158970.194026624783874 ], [ 462604.980970741249621, 9158964.684111280366778 ], [ 462618.369065215811133, 9158961.537963880226016 ], [ 462626.241724240593612, 9158963.122446116060019 ], [ 462632.535279996693134, 9158970.229801025241613 ], [ 462637.249116388149559, 9158983.649187233299017 ], [ 462643.986803307197988, 9158999.439936012029648 ] ] ] } },
{ "type": "Feature", "properties": { "Id": 0, "as_jalan": 3.0, "Keterangan": "Jalan Lain", "setjalan": 1.5, "Lebar_Jala": 3.6, "Nama_Jalan": null, "Tambahan_T": null, "Pengerasan": "Aspal", "SET_BUF": 0.0 }, "geometry": { "type": "MultiLineString", "coordinates": [ [ [ 462584.112054413184524, 9158968.613550115376711 ], [ 462455.647742948494852, 9159006.976850353181362 ], [ 462450.932858518324792, 9159010.294731989502907 ] ] ] } },
{ "type": "Feature", "properties": { "Id": 0, "as_jalan": 3.0, "Keterangan": "Jalan Lain", "setjalan": 1.5, "Lebar_Jala": 2.8, "Nama_Jalan": null, "Tambahan_T": null, "Pengerasan": "Aspal", "SET_BUF": 0.0 }, "geometry": { "type": "MultiLineString", "coordinates": [ [ [ 462297.68487904779613, 9158975.605880545452237 ], [ 462295.241966144181788, 9158976.804586933925748 ], [ 462277.182800172828138, 9158995.532841000705957 ], [ 462267.171311775222421, 9159001.936842748895288 ] ] ] } },
{ "type": "Feature", "properties": { "Id": 0, "as_jalan": 3.0, "Keterangan": "Jalan Lain", "setjalan": 1.5, "Lebar_Jala": 2.0, "Nama_Jalan": null, "Tambahan_T": null, "Pengerasan": "Aspal", "SET_BUF": 0.0 }, "geometry": { "type": "MultiLineString", "coordinates": [ [ [ 462297.68487904779613, 9158975.605880545452237 ], [ 462318.137790587730706, 9159026.346768060699105 ] ] ] } },
{ "type": "Feature", "properties": { "Id": 0, "as_jalan": 3.0, "Keterangan": "Jalan Lain", "setjalan": 1.5, "Lebar_Jala": 3.6, "Nama_Jalan": null, "Tambahan_T": null, "Pengerasan": "Aspal", "SET_BUF": 0.0 }, "geometry": { "type": "MultiLineString", "coordinates": [ [ [ 462643.986803307197988, 9158999.439936012029648 ], [ 462651.396199513226748, 9159016.804919138550758 ], [ 462655.715424973517656, 9159031.407731913030148 ], [ 462660.031566768884659, 9159049.956334460526705 ] ] ] } },
{ "type": "Feature", "properties": { "Id": 0, "as_jalan": 3.0, "Keterangan": "Jalan Lain", "setjalan": 1.5, "Lebar_Jala": 4.0, "Nama_Jalan": null, "Tambahan_T": null, "Pengerasan": "Aspal", "SET_BUF": 0.0 }, "geometry": { "type": "MultiLineString", "coordinates": [ [ [ 462267.171311775222421, 9159001.936842748895288 ], [ 462274.441051052883267, 9158983.081432268023491 ], [ 462282.047837099060416, 9158961.253263611346483 ], [ 462284.89211362041533, 9158946.959120439365506 ], [ 462285.172361369244754, 9158942.078542321920395 ] ] ] } },
{ "type": "Feature", "properties": { "Id": 0, "as_jalan": 3.0, "Keterangan": "Jalan Lain", "setjalan": 1.5, "Lebar_Jala": 3.0, "Nama_Jalan": null, "Tambahan_T": null, "Pengerasan": "Aspal", "SET_BUF": 0.0 }, "geometry": { "type": "MultiLineString", "coordinates": [ [ [ 462267.171311775222421, 9159001.936842748895288 ], [ 462257.159823374822736, 9159008.340844495221972 ], [ 462191.847802871838212, 9159038.869065664708614 ], [ 462183.242889050394297, 9159042.052278695628047 ] ] ] } },
{ "type": "Feature", "properties": { "Id": 0, "as_jalan": 3.0, "Keterangan": "Jalan Lain", "setjalan": 1.5, "Lebar_Jala": 2.7, "Nama_Jalan": null, "Tambahan_T": null, "Pengerasan": "Aspal", "SET_BUF": 0.0 }, "geometry": { "type": "MultiLineString", "coordinates": [ [ [ 462318.137790587730706, 9159026.346768060699105 ], [ 462338.608207251876593, 9159028.572567718103528 ] ] ] } },
{ "type": "Feature", "properties": { "Id": 0, "as_jalan": 3.0, "Keterangan": "Jalan Lain", "setjalan": 1.5, "Lebar_Jala": 2.7, "Nama_Jalan": null, "Tambahan_T": "Tambahan", "Pengerasan": "Aspal", "SET_BUF": 0.0 }, "geometry": { "type": "MultiLineString", "coordinates": [ [ [ 462318.137790589593351, 9159026.346768060699105 ], [ 462317.662615060806274, 9159029.818691741675138 ], [ 462296.39657979272306, 9159038.009151251986623 ], [ 462284.582722107879817, 9159041.787781063467264 ], [ 462262.265602710656822, 9159050.955098036676645 ] ] ] } },
{ "type": "Feature", "properties": { "Id": 0, "as_jalan": 3.0, "Keterangan": "Jalan Lain", "setjalan": 1.5, "Lebar_Jala": 2.7, "Nama_Jalan": null, "Tambahan_T": "Tambahan", "Pengerasan": "Aspal", "SET_BUF": 0.0 }, "geometry": { "type": "MultiLineString", "coordinates": [ [ [ 462338.608207251876593, 9159028.572567718103528 ], [ 462383.327401804737747, 9159034.447603842243552 ], [ 462391.672004043124616, 9159036.663823425769806 ], [ 462408.996592219918966, 9159034.152161514386535 ], [ 462423.32996301818639, 9159030.533316599205136 ], [ 462448.551603755913675, 9159012.19973579980433 ], [ 462450.932858518324792, 9159010.294731989502907 ] ] ] } },
{ "type": "Feature", "properties": { "Id": 0, "as_jalan": 3.0, "Keterangan": "Jalan Lain", "setjalan": 1.5, "Lebar_Jala": 2.5, "Nama_Jalan": null, "Tambahan_T": "Tambahan", "Pengerasan": "Beton", "SET_BUF": 0.0 }, "geometry": { "type": "MultiLineString", "coordinates": [ [ [ 463089.169876793923322, 9158933.629572285339236 ], [ 463091.848219345323741, 9158930.492085296660662 ], [ 463092.93662402254995, 9158929.99735589697957 ] ] ] } },
{ "type": "Feature", "properties": { "Id": 0, "as_jalan": 3.0, "Keterangan": "Jalan Lain", "setjalan": 1.5, "Lebar_Jala": 3.7, "Nama_Jalan": null, "Tambahan_T": null, "Pengerasan": "Aspal", "SET_BUF": 0.0 }, "geometry": { "type": "MultiLineString", "coordinates": [ [ [ 462183.242889050394297, 9159042.052278695628047 ], [ 462159.030196487903595, 9159051.009261826053262 ], [ 462131.136899684555829, 9159059.207548024132848 ], [ 462118.455453980714083, 9159061.750119626522064 ], [ 462109.724186517298222, 9159062.80845507606864 ], [ 462098.479372360743582, 9159067.17408880777657 ] ] ] } },
{ "type": "Feature", "properties": { "Id": 0, "as_jalan": 3.0, "Keterangan": "Jalan Lain", "setjalan": 1.5, "Lebar_Jala": 2.7, "Nama_Jalan": null, "Tambahan_T": null, "Pengerasan": "Aspal", "SET_BUF": 0.0 }, "geometry": { "type": "MultiLineString", "coordinates": [ [ [ 462186.88467457331717, 9159091.804544182494283 ], [ 462198.160839016549289, 9159093.124355185776949 ], [ 462214.432190393097699, 9159094.925997033715248 ], [ 462230.283683596178889, 9159096.62207992747426 ], [ 462257.298310419544578, 9159093.219373086467385 ], [ 462271.157281368039548, 9159092.125505812466145 ], [ 462305.172860046848655, 9159091.836713509634137 ], [ 462318.793433247134089, 9159091.074794763699174 ] ] ] } },
{ "type": "Feature", "properties": { "Id": 0, "as_jalan": 3.0, "Keterangan": "Jalan Lain", "setjalan": 1.5, "Lebar_Jala": 3.3, "Nama_Jalan": null, "Tambahan_T": null, "Pengerasan": "Aspal", "SET_BUF": 0.0 }, "geometry": { "type": "MultiLineString", "coordinates": [ [ [ 462660.031566768884659, 9159049.956334460526705 ], [ 462693.330068845301867, 9159042.75773279927671 ], [ 462730.081378916278481, 9159034.579192340373993 ], [ 462766.201777927577496, 9159027.662785591557622 ], [ 462825.634163287468255, 9159014.030360439792275 ], [ 462871.836396309547126, 9159002.912880711257458 ], [ 462926.648544874042273, 9158990.328949525952339 ], [ 462952.480318089947104, 9158983.404412236064672 ], [ 462956.891169732436538, 9158981.513855472207069 ], [ 462957.314540439285338, 9158977.094897232949734 ], [ 462955.009437700733542, 9158971.20072584412992 ], [ 462939.088858271017671, 9158929.310822272673249 ] ] ] } },
{ "type": "Feature", "properties": { "Id": 0, "as_jalan": 3.0, "Keterangan": "Jalan Lain", "setjalan": 1.5, "Lebar_Jala": 2.5, "Nama_Jalan": null, "Tambahan_T": null, "Pengerasan": "Aspal", "SET_BUF": 0.0 }, "geometry": { "type": "MultiLineString", "coordinates": [ [ [ 462648.17454712302424, 9159108.936660092324018 ], [ 462646.988982788287103, 9159114.657131940126419 ], [ 462647.270335208682809, 9159122.435593808069825 ] ] ] } },
{ "type": "Feature", "properties": { "Id": 0, "as_jalan": 3.0, "Keterangan": "Jalan Lain", "setjalan": 1.5, "Lebar_Jala": 2.7, "Nama_Jalan": null, "Tambahan_T": null, "Pengerasan": "Aspal", "SET_BUF": 0.0 }, "geometry": { "type": "MultiLineString", "coordinates": [ [ [ 462318.793433247134089, 9159091.074794763699174 ], [ 462321.86631491035223, 9159090.902901399880648 ], [ 462328.799971378408372, 9159085.06859833560884 ], [ 462339.042787767015398, 9159076.553765222430229 ], [ 462342.510174367576838, 9159072.926370171830058 ], [ 462338.760330894961953, 9159035.359453424811363 ], [ 462338.608207251876593, 9159028.572567718103528 ] ] ] } },
{ "type": "Feature", "properties": { "Id": 0, "as_jalan": 3.0, "Keterangan": "Jalan Lain", "setjalan": 1.5, "Lebar_Jala": 2.7, "Nama_Jalan": null, "Tambahan_T": null, "Pengerasan": "Aspal", "SET_BUF": 0.0 }, "geometry": { "type": "MultiLineString", "coordinates": [ [ [ 462321.866314911283553, 9159090.902901399880648 ], [ 462320.239895744249225, 9159095.665802046656609 ], [ 462320.43498678971082, 9159104.582310685887933 ], [ 462324.87999568041414, 9159117.441086404025555 ], [ 462330.118756158277392, 9159127.759857039898634 ], [ 462337.262520445510745, 9159136.014873549342155 ], [ 462342.6600312422961, 9159144.428640376776457 ], [ 462346.946289812214673, 9159152.524906573817134 ] ] ] } },
{ "type": "Feature", "properties": { "Id": 0, "as_jalan": 0.0, "Keterangan": "Jalan Setapak", "setjalan": 0.0, "Lebar_Jala": 1.5, "Nama_Jalan": null, "Tambahan_T": "Tambahan", "Pengerasan": "Aspal", "SET_BUF": 0.0 }, "geometry": { "type": "MultiLineString", "coordinates": [ [ [ 462928.085852625779808, 9158989.943660795688629 ], [ 462912.390665922313929, 9158939.551322493702173 ] ] ] } },
{ "type": "Feature", "properties": { "Id": 0, "as_jalan": 0.0, "Keterangan": "Jalan Setapak", "setjalan": 0.0, "Lebar_Jala": 1.7, "Nama_Jalan": null, "Tambahan_T": "Tambahan", "Pengerasan": "Aspal", "SET_BUF": 0.0 }, "geometry": { "type": "MultiLineString", "coordinates": [ [ [ 462870.661472793668509, 9159003.19559839554131 ], [ 462865.628287235274911, 9158982.776709428057075 ], [ 462859.959940512664616, 9158961.730664243921638 ] ] ] } },
{ "type": "Feature", "properties": { "Id": 0, "as_jalan": 0.0, "Keterangan": "Jalan Setapak", "setjalan": 0.0, "Lebar_Jala": 2.3, "Nama_Jalan": null, "Tambahan_T": "Tambahan", "Pengerasan": "Aspal", "SET_BUF": 0.0 }, "geometry": { "type": "MultiLineString", "coordinates": [ [ [ 462884.657541733235121, 9158999.96936515904963 ], [ 462889.043959065340459, 9159019.81845017708838 ] ] ] } },
{ "type": "Feature", "properties": { "Id": 0, "as_jalan": 0.0, "Keterangan": "Jalan Setapak", "setjalan": 0.0, "Lebar_Jala": 2.0, "Nama_Jalan": null, "Tambahan_T": "Tambahan", "Pengerasan": "Aspal", "SET_BUF": 0.0 }, "geometry": { "type": "MultiLineString", "coordinates": [ [ [ 462798.648646235466003, 9159020.220218699425459 ], [ 462813.955058888532221, 9159084.509204559028149 ] ] ] } },
{ "type": "Feature", "properties": { "Id": 0, "as_jalan": 0.0, "Keterangan": "Jalan Setapak", "setjalan": 0.0, "Lebar_Jala": 2.3, "Nama_Jalan": null, "Tambahan_T": "Tambahan", "Pengerasan": "Aspal", "SET_BUF": 0.0 }, "geometry": { "type": "MultiLineString", "coordinates": [ [ [ 462790.646724374033511, 9158979.494795782491565 ], [ 462800.07749882992357, 9159019.892472708597779 ] ] ] } },
{ "type": "Feature", "properties": { "Id": 0, "as_jalan": 0.0, "Keterangan": "Jalan Setapak", "setjalan": 0.0, "Lebar_Jala": 2.5, "Nama_Jalan": null, "Tambahan_T": "Tambahan", "Pengerasan": "Aspal", "SET_BUF": 0.0 }, "geometry": { "type": "MultiLineString", "coordinates": [ [ [ 462734.141296058893204, 9159033.801791230216622 ], [ 462728.73404729180038, 9158987.486857950687408 ] ] ] } },
{ "type": "Feature", "properties": { "Id": 0, "as_jalan": 0.0, "Keterangan": "Jalan Setapak", "setjalan": 0.0, "Lebar_Jala": 2.5, "Nama_Jalan": null, "Tambahan_T": "Tambahan", "Pengerasan": "Beton", "SET_BUF": 0.0 }, "geometry": { "type": "MultiLineString", "coordinates": [ [ [ 463357.088402099907398, 9158790.057792738080025 ], [ 463362.909247077070177, 9158807.202827025204897 ] ] ] } },
{ "type": "Feature", "properties": { "Id": 0, "as_jalan": 0.0, "Keterangan": "Jalan Setapak", "setjalan": 0.0, "Lebar_Jala": 2.5, "Nama_Jalan": null, "Tambahan_T": "Tambahan", "Pengerasan": "Beton", "SET_BUF": 0.0 }, "geometry": { "type": "MultiLineString", "coordinates": [ [ [ 463380.042455432005227, 9158782.865972362458706 ], [ 463357.088402099907398, 9158790.05779273621738 ] ] ] } },
{ "type": "Feature", "properties": { "Id": 0, "as_jalan": 0.0, "Keterangan": "Jalan Setapak", "setjalan": 0.0, "Lebar_Jala": 2.0, "Nama_Jalan": null, "Tambahan_T": "Tambahan", "Pengerasan": "Beton", "SET_BUF": 0.0 }, "geometry": { "type": "MultiLineString", "coordinates": [ [ [ 463396.388331686146557, 9158813.334441561251879 ], [ 463408.396504716947675, 9158809.128997545689344 ] ] ] } },
{ "type": "Feature", "properties": { "Id": 0, "as_jalan": 3.0, "Keterangan": "Jalan Lain", "setjalan": 1.5, "Lebar_Jala": 3.6, "Nama_Jalan": null, "Tambahan_T": null, "Pengerasan": "Beton", "SET_BUF": 0.0 }, "geometry": { "type": "MultiLineString", "coordinates": [ [ [ 463459.729708367958665, 9158819.949038123711944 ], [ 463458.142205194570124, 9158823.018210932612419 ], [ 463443.854676619172096, 9158837.094072416424751 ], [ 463425.75714042596519, 9158846.089923743158579 ] ] ] } },
{ "type": "Feature", "properties": { "Id": 0, "as_jalan": 0.0, "Keterangan": "Jalan Setapak", "setjalan": 0.0, "Lebar_Jala": 2.5, "Nama_Jalan": null, "Tambahan_T": "Tambahan", "Pengerasan": "Beton", "SET_BUF": 0.0 }, "geometry": { "type": "MultiLineString", "coordinates": [ [ [ 463426.708350012078881, 9158848.667518492788076 ], [ 463447.841085863299668, 9158837.386421762406826 ] ] ] } },
{ "type": "Feature", "properties": { "Id": 0, "as_jalan": 0.0, "Keterangan": "Jalan Setapak", "setjalan": 0.0, "Lebar_Jala": 2.6, "Nama_Jalan": null, "Tambahan_T": "Tambahan", "Pengerasan": "Beton", "SET_BUF": 0.0 }, "geometry": { "type": "MultiLineString", "coordinates": [ [ [ 463425.75714042596519, 9158846.089923743158579 ], [ 463428.989485661499202, 9158854.848956687375903 ] ] ] } },
{ "type": "Feature", "properties": { "Id": 0, "as_jalan": 0.0, "Keterangan": "Jalan Setapak", "setjalan": 0.0, "Lebar_Jala": 2.6, "Nama_Jalan": null, "Tambahan_T": "Tambahan", "Pengerasan": "Beton", "SET_BUF": 0.0 }, "geometry": { "type": "MultiLineString", "coordinates": [ [ [ 463453.764587712474167, 9158782.390295088291168 ], [ 463385.54039332550019, 9158796.242324044927955 ] ] ] } },
{ "type": "Feature", "properties": { "Id": 0, "as_jalan": 0.0, "Keterangan": "Jalan Setapak", "setjalan": 0.0, "Lebar_Jala": 1.2, "Nama_Jalan": null, "Tambahan_T": "Tambahan", "Pengerasan": "Beton", "SET_BUF": 0.0 }, "geometry": { "type": "MultiLineString", "coordinates": [ [ [ 463430.562068994157016, 9158787.10126256942749 ], [ 463416.282294208183885, 9158726.929382340982556 ] ] ] } },
{ "type": "Feature", "properties": { "Id": 0, "as_jalan": 0.0, "Keterangan": "Jalan Setapak", "setjalan": 0.0, "Lebar_Jala": 2.7, "Nama_Jalan": null, "Tambahan_T": "Tambahan", "Pengerasan": "Aspal", "SET_BUF": 0.0 }, "geometry": { "type": "MultiLineString", "coordinates": [ [ [ 463499.90015329234302, 9158712.591379834339023 ], [ 463487.508116724900901, 9158657.961272317916155 ] ] ] } },
{ "type": "Feature", "properties": { "Id": 0, "as_jalan": 0.0, "Keterangan": "Jalan Setapak", "setjalan": 0.0, "Lebar_Jala": 1.6, "Nama_Jalan": null, "Tambahan_T": "Tambahan", "Pengerasan": "Aspal", "SET_BUF": 0.0 }, "geometry": { "type": "MultiLineString", "coordinates": [ [ [ 463504.457412197254598, 9158711.77364900521934 ], [ 463511.635782896541059, 9158751.253350188955665 ] ] ] } },
{ "type": "Feature", "properties": { "Id": 0, "as_jalan": 0.0, "Keterangan": "Jalan Setapak", "setjalan": 0.0, "Lebar_Jala": 2.0, "Nama_Jalan": null, "Tambahan_T": "Tambahan", "Pengerasan": "Aspal", "SET_BUF": 0.0 }, "geometry": { "type": "MultiLineString", "coordinates": [ [ [ 463541.267840194515884, 9158704.098237847909331 ], [ 463544.585293239913881, 9158706.760927872732282 ], [ 463548.924468586221337, 9158721.789291264489293 ], [ 463551.9936413904652, 9158722.95346025750041 ], [ 463556.756150916218758, 9158724.223462797701359 ] ] ] } },
{ "type": "Feature", "properties": { "Id": 0, "as_jalan": 3.0, "Keterangan": "Jalan Lain", "setjalan": 1.5, "Lebar_Jala": 4.0, "Nama_Jalan": null, "Tambahan_T": null, "Pengerasan": "Beton", "SET_BUF": 0.0 }, "geometry": { "type": "MultiLineString", "coordinates": [ [ [ 462738.971064095327165, 9158801.431658567860723 ], [ 462550.341918063350022, 9158856.921112829819322 ] ] ] } },
{ "type": "Feature", "properties": { "Id": 0, "as_jalan": 3.0, "Keterangan": "Jalan Lain", "setjalan": 1.5, "Lebar_Jala": 3.6, "Nama_Jalan": null, "Tambahan_T": null, "Pengerasan": "Aspal", "SET_BUF": 0.0 }, "geometry": { "type": "MultiLineString", "coordinates": [ [ [ 462660.031566768884659, 9159049.956334460526705 ], [ 462665.126462779939175, 9159079.553764997050166 ], [ 462660.000394157133996, 9159089.808816766366363 ], [ 462649.360111457295716, 9159103.216188246384263 ], [ 462648.17454712302424, 9159108.936660092324018 ] ] ] } },
{ "type": "Feature", "properties": { "Id": 0, "as_jalan": 3.0, "Keterangan": "Jalan Lain", "setjalan": 1.5, "Lebar_Jala": 2.7, "Nama_Jalan": null, "Tambahan_T": null, "Pengerasan": "Aspal", "SET_BUF": 0.0 }, "geometry": { "type": "MultiLineString", "coordinates": [ [ [ 462183.242889050394297, 9159042.052278695628047 ], [ 462190.042077834717929, 9159073.957906795665622 ], [ 462186.884674574248493, 9159091.804544182494283 ] ] ] } },
{ "type": "Feature", "properties": { "Id": 0, "as_jalan": 3.0, "Keterangan": "Jalan Lain", "setjalan": 1.5, "Lebar_Jala": 2.8, "Nama_Jalan": null, "Tambahan_T": null, "Pengerasan": "Aspal", "SET_BUF": 0.0 }, "geometry": { "type": "MultiLineString", "coordinates": [ [ [ 462450.932858518324792, 9159010.294731989502907 ], [ 462446.382323810830712, 9159003.57259014621377 ], [ 462444.296452150680125, 9158998.743897361680865 ], [ 462440.46062923874706, 9158992.067549701780081 ], [ 462428.034166443161666, 9158978.321016028523445 ], [ 462408.367028295062482, 9158955.946032589301467 ], [ 462389.066602556034923, 9158936.156573530286551 ] ] ] } },
{ "type": "Feature", "properties": { "Id": 0, "as_jalan": 0.0, "Keterangan": "Jalan Setapak", "setjalan": 0.0, "Lebar_Jala": 1.8, "Nama_Jalan": null, "Tambahan_T": "Tambahan", "Pengerasan": "Aspal", "SET_BUF": 0.0 }, "geometry": { "type": "MultiLineString", "coordinates": [ [ [ 462186.884674574248493, 9159091.804544182494283 ], [ 462184.640666212886572, 9159102.756649563089013 ] ] ] } },
{ "type": "Feature", "properties": { "Id": 0, "as_jalan": 0.0, "Keterangan": "Jalan Setapak", "setjalan": 0.0, "Lebar_Jala": 1.3, "Nama_Jalan": null, "Tambahan_T": "Tambahan", "Pengerasan": "Aspal", "SET_BUF": 0.0 }, "geometry": { "type": "MultiLineString", "coordinates": [ [ [ 462187.876769762486219, 9159063.79706022143364 ], [ 462169.887470039539039, 9159067.228328509256244 ] ] ] } },
{ "type": "Feature", "properties": { "Id": 0, "as_jalan": 0.0, "Keterangan": "Jalan Setapak", "setjalan": 0.0, "Lebar_Jala": 1.4, "Nama_Jalan": null, "Tambahan_T": "Tambahan", "Pengerasan": "Aspal", "SET_BUF": 0.0 }, "geometry": { "type": "MultiLineString", "coordinates": [ [ [ 462217.917448073625565, 9159026.683561550453305 ], [ 462221.510868424549699, 9159042.832373455166817 ], [ 462225.215042500756681, 9159055.400106925517321 ], [ 462227.596297263167799, 9159067.703256530687213 ], [ 462231.587667063809931, 9159096.457832850515842 ] ] ] } },
{ "type": "Feature", "properties": { "Id": 0, "as_jalan": 0.0, "Keterangan": "Jalan Setapak", "setjalan": 0.0, "Lebar_Jala": 2.7, "Nama_Jalan": null, "Tambahan_T": "Tambahan", "Pengerasan": "Aspal", "SET_BUF": 0.0 }, "geometry": { "type": "MultiLineString", "coordinates": [ [ [ 462263.506093502976, 9159092.729402309283614 ], [ 462263.138729456812143, 9159065.7188775613904 ], [ 462262.265602710656822, 9159050.955098036676645 ], [ 462261.194038067944348, 9159041.50945414416492 ], [ 462261.035287749953568, 9159024.840670807287097 ], [ 462257.159823376685381, 9159008.340844495221972 ] ] ] } },
{ "type": "Feature", "properties": { "Id": 0, "as_jalan": 0.0, "Keterangan": "Jalan Setapak", "setjalan": 0.0, "Lebar_Jala": 1.9, "Nama_Jalan": null, "Tambahan_T": "Tambahan", "Pengerasan": "Aspal", "SET_BUF": 0.0 }, "geometry": { "type": "MultiLineString", "coordinates": [ [ [ 462345.969900722615421, 9158993.387562057003379 ], [ 462382.511471674777567, 9158989.180939765647054 ] ] ] } },
{ "type": "Feature", "properties": { "Id": 0, "as_jalan": 0.0, "Keterangan": "Jalan Setapak", "setjalan": 0.0, "Lebar_Jala": 1.8, "Nama_Jalan": null, "Tambahan_T": "Tambahan", "Pengerasan": "Aspal", "SET_BUF": 0.0 }, "geometry": { "type": "MultiLineString", "coordinates": [ [ [ 462330.690452432259917, 9158959.470585500821471 ], [ 462342.681017015129328, 9158985.582599230110645 ], [ 462351.544576408341527, 9159006.617016302421689 ], [ 462360.169103274121881, 9159031.405155476182699 ] ] ] } },
{ "type": "Feature", "properties": { "Id": 0, "as_jalan": 3.0, "Keterangan": "Jalan Lain", "setjalan": 1.5, "Lebar_Jala": 3.0, "Nama_Jalan": null, "Tambahan_T": "Tambahan", "Pengerasan": "Aspal", "SET_BUF": 0.0 }, "geometry": { "type": "MultiLineString", "coordinates": [ [ [ 462310.176548295654356, 9158688.70469956099987 ], [ 462359.134164487943053, 9158686.561383154243231 ], [ 462386.650886187329888, 9158685.714714791625738 ], [ 462406.794537586160004, 9158684.896268710494041 ], [ 462412.932883195579052, 9158685.84877061471343 ], [ 462418.330393991433084, 9158686.377938341349363 ] ] ] } },
{ "type": "Feature", "properties": { "Id": 0, "as_jalan": 0.0, "Keterangan": "Jalan Setapak", "setjalan": 0.0, "Lebar_Jala": 2.3, "Nama_Jalan": null, "Tambahan_T": "Tambahan", "Pengerasan": "Aspal", "SET_BUF": 0.0 }, "geometry": { "type": "MultiLineString", "coordinates": [ [ [ 462381.698758228681982, 9158725.766537951305509 ], [ 462391.488361141644418, 9158748.388458196073771 ], [ 462398.102957703173161, 9158769.025999469682574 ], [ 462402.997759161517024, 9158780.270813627168536 ] ] ] } },
{ "type": "Feature", "properties": { "Id": 0, "as_jalan": 0.0, "Keterangan": "Jalan Setapak", "setjalan": 0.0, "Lebar_Jala": 2.5, "Nama_Jalan": null, "Tambahan_T": "Tambahan", "Pengerasan": "Aspal", "SET_BUF": 0.0 }, "geometry": { "type": "MultiLineString", "coordinates": [ [ [ 462393.745152248069644, 9158755.429646445438266 ], [ 462422.999718368053436, 9158744.582247290760279 ] ] ] } },
{ "type": "Feature", "properties": { "Id": 0, "as_jalan": 0.0, "Keterangan": "Jalan Setapak", "setjalan": 0.0, "Lebar_Jala": 1.5, "Nama_Jalan": null, "Tambahan_T": "Tambahan", "Pengerasan": "Aspal", "SET_BUF": 0.0 }, "geometry": { "type": "MultiLineString", "coordinates": [ [ [ 462405.736202136613429, 9158711.386405028402805 ], [ 462381.698758228681982, 9158725.766537951305509 ], [ 462366.139022247865796, 9158732.945580085739493 ] ] ] } },
{ "type": "Feature", "properties": { "Id": 0, "as_jalan": 0.0, "Keterangan": "Jalan Setapak", "setjalan": 0.0, "Lebar_Jala": 1.5, "Nama_Jalan": null, "Tambahan_T": "Tambahan", "Pengerasan": "Aspal", "SET_BUF": 0.0 }, "geometry": { "type": "MultiLineString", "coordinates": [ [ [ 462405.736202136613429, 9158711.386405028402805 ], [ 462429.639149248600006, 9158699.872597271576524 ] ] ] } },
{ "type": "Feature", "properties": { "Id": 0, "as_jalan": 0.0, "Keterangan": "Jalan Setapak", "setjalan": 0.0, "Lebar_Jala": 1.4, "Nama_Jalan": null, "Tambahan_T": "Tambahan", "Pengerasan": "Aspal", "SET_BUF": 0.0 }, "geometry": { "type": "MultiLineString", "coordinates": [ [ [ 462462.192462637089193, 9158674.124428760260344 ], [ 462466.665455941110849, 9158685.152915054932237 ], [ 462468.09420879650861, 9158693.725432200357318 ], [ 462471.287555227056146, 9158715.156243229284883 ], [ 462473.174218957312405, 9158732.143009034916759 ], [ 462475.132139539346099, 9158747.753456925973296 ], [ 462476.697422623634338, 9158760.985465809702873 ] ] ] } },
{ "type": "Feature", "properties": { "Id": 0, "as_jalan": 0.0, "Keterangan": "Jalan Setapak", "setjalan": 0.0, "Lebar_Jala": 1.8, "Nama_Jalan": null, "Tambahan_T": "Tambahan", "Pengerasan": "Aspal", "SET_BUF": 0.0 }, "geometry": { "type": "MultiLineString", "coordinates": [ [ [ 462469.299451272934675, 9158701.813913764432073 ], [ 462503.46907121501863, 9158690.656259395182133 ] ] ] } },
{ "type": "Feature", "properties": { "Id": 0, "as_jalan": 0.0, "Keterangan": "Jalan Setapak", "setjalan": 0.0, "Lebar_Jala": 1.8, "Nama_Jalan": null, "Tambahan_T": "Tambahan", "Pengerasan": "Aspal", "SET_BUF": 0.0 }, "geometry": { "type": "MultiLineString", "coordinates": [ [ [ 462520.601383328437805, 9158733.566081870347261 ], [ 462513.258674126118422, 9158716.188602128997445 ], [ 462507.17324529029429, 9158699.916694585233927 ], [ 462503.46907121501863, 9158690.656259395182133 ], [ 462493.061330460943282, 9158659.677157741039991 ] ] ] } },
{ "type": "Feature", "properties": { "Id": 0, "as_jalan": 0.0, "Keterangan": "Jalan Setapak", "setjalan": 0.0, "Lebar_Jala": 2.2, "Nama_Jalan": null, "Tambahan_T": "Tambahan", "Pengerasan": "Aspal", "SET_BUF": 0.0 }, "geometry": { "type": "MultiLineString", "coordinates": [ [ [ 462507.17324529029429, 9158699.916694585233927 ], [ 462548.143994284793735, 9158684.154236145317554 ] ] ] } },
{ "type": "Feature", "properties": { "Id": 0, "as_jalan": 3.0, "Keterangan": "Jalan Lain", "setjalan": 1.5, "Lebar_Jala": 4.6, "Nama_Jalan": null, "Tambahan_T": null, "Pengerasan": "Aspal", "SET_BUF": 0.0 }, "geometry": { "type": "MultiLineString", "coordinates": [ [ [ 462325.224828619509935, 9158787.592702765017748 ], [ 462310.650679937563837, 9158712.415648814290762 ], [ 462310.019459099508822, 9158680.848792945966125 ], [ 462301.781202558428049, 9158661.591722100973129 ], [ 462297.773894118086901, 9158651.072537442669272 ] ] ] } }
]
}
